{
   "type": "FeatureCollection",
   "features": [
  {
    "type": "Feature",
    "geometry": {
       "type": "Point",
       "coordinates":  { }
    },
    "properties": {
    "醫療機構名稱":"展立心理治療所",
    "地址":"臺北市士林區中山北路五段527號3樓",
    "連絡電話":"(02)28830823",
    "項目":"心理治療"
    }
  },
  {
    "type": "Feature",
    "geometry": {
       "type": "Point",
       "coordinates":  { }
    },
    "properties": {
    "醫療機構名稱":"奈思語言治療所",
    "地址":"臺北市士林區中山北路五段685號10樓",
    "連絡電話":"",
    "項目":"語言治療"
    }
  },
  {
    "type": "Feature",
    "geometry": {
       "type": "Point",
       "coordinates":  { }
    },
    "properties": {
    "醫療機構名稱":"愛能職能治療所",
    "地址":"臺北市士林區天母北路10-1號1樓",
    "連絡電話":"(02)28768354",
    "項目":"職能治療"
    }
  },
  {
    "type": "Feature",
    "geometry": {
       "type": "Point",
       "coordinates":  [ 121.5298127,25.1062052 ]
    },
    "properties": {
    "醫療機構名稱":"天母品恆復健科診所",
    "地址":"臺北市士林區忠誠路一段137號",
    "連絡電話":"(02)28386855",
    "項目":"物理治療, 職能治療, 語言治療, 心理治療"
    }
  },
  {
    "type": "Feature",
    "geometry": {
       "type": "Point",
       "coordinates":  { }
    },
    "properties": {
    "醫療機構名稱":"用心說心理治療所",
    "地址":"臺北市士林區福國路56巷17號1樓",
    "連絡電話":"",
    "項目":"心理治療"
    }
  },
  {
    "type": "Feature",
    "geometry": {
       "type": "Point",
       "coordinates":  { }
    },
    "properties": {
    "醫療機構名稱":"用心說語言治療所",
    "地址":"臺北市士林區福國路56巷17號1樓",
    "連絡電話":"",
    "項目":"語言治療"
    }
  },
  {
    "type": "Feature",
    "geometry": {
       "type": "Point",
       "coordinates":  [ 121.5164312,25.0684366 ]
    },
    "properties": {
    "醫療機構名稱":"宜康復健科診所",
    "地址":"臺北市大同區民族西路124號",
    "連絡電話":"(02)25851555",
    "項目":"職能治療"
    }
  },
  {
    "type": "Feature",
    "geometry": {
       "type": "Point",
       "coordinates":  [ 121.5117242,25.0631256 ]
    },
    "properties": {
    "醫療機構名稱":"新旅程復健科診所",
    "地址":"臺北市大同區民權西路237-9號、237之7號",
    "連絡電話":"(02)25858286",
    "項目":"物理治療, 職能治療"
    }
  },
  {
    "type": "Feature",
    "geometry": {
       "type": "Point",
       "coordinates":  [ 121.5502735,25.0335398 ]
    },
    "properties": {
    "醫療機構名稱":"大步語言治療所",
    "地址":"臺北市大安區仁愛路四段122巷63號6樓之2",
    "連絡電話":"",
    "項目":"語言治療"
    }
  },
  {
    "type": "Feature",
    "geometry": {
       "type": "Point",
       "coordinates":  { }
    },
    "properties": {
    "醫療機構名稱":"適群診所",
    "地址":"臺北市大安區四維路198巷32號",
    "連絡電話":"(02)27553700",
    "項目":"物理治療, 職能治療, 語言治療"
    }
  },
  {
    "type": "Feature",
    "geometry": {
       "type": "Point",
       "coordinates":  [ 121.5505627,25.0412543 ]
    },
    "properties": {
    "醫療機構名稱":"適健復健科診所",
    "地址":"臺北市大安區忠孝東路四段166號8樓",
    "連絡電話":"(02)87717039",
    "項目":"職能治療, 語言治療"
    }
  },
  {
    "type": "Feature",
    "geometry": {
       "type": "Point",
       "coordinates":  [ 121.5307549,25.0334493 ]
    },
    "properties": {
    "醫療機構名稱":"達仁診所",
    "地址":"臺北市大安區信義路二段208號4樓",
    "連絡電話":"(02)23940006",
    "項目":"物理治療, 職能治療, 語言治療"
    }
  },
  {
    "type": "Feature",
    "geometry": {
       "type": "Point",
       "coordinates":  [ 121.543064,25.0331708 ]
    },
    "properties": {
    "醫療機構名稱":"童伴心理治療所",
    "地址":"臺北市大安區信義路三段190號6樓",
    "連絡電話":"(02)27555429",
    "項目":"心理治療"
    }
  },
  {
    "type": "Feature",
    "geometry": {
       "type": "Point",
       "coordinates":  [ 121.5504265,25.0334149 ]
    },
    "properties": {
    "醫療機構名稱":"杏誠復健科診所",
    "地址":"臺北市大安區信義路四段173號2樓",
    "連絡電話":"(02)27061732",
    "項目":"物理治療, 職能治療, 語言治療"
    }
  },
  {
    "type": "Feature",
    "geometry": {
       "type": "Point",
       "coordinates":  [ 121.5545551,25.0341736 ]
    },
    "properties": {
    "醫療機構名稱":"仁生復健科診所",
    "地址":"臺北市大安區信義路四段265巷17號1-2樓",
    "連絡電話":"(02)27030336",
    "項目":"物理治療, 職能治療, 語言治療"
    }
  },
  {
    "type": "Feature",
    "geometry": {
       "type": "Point",
       "coordinates":  [ 121.5438692,25.0336704 ]
    },
    "properties": {
    "醫療機構名稱":"萌語語言治療所",
    "地址":"臺北市大安區復興南路一段323路9樓",
    "連絡電話":"(02)27000700",
    "項目":"語言治療"
    }
  },
  {
    "type": "Feature",
    "geometry": {
       "type": "Point",
       "coordinates":  { }
    },
    "properties": {
    "醫療機構名稱":"大安宏兒職能治療所",
    "地址":"臺北市大安區復興南路二段210巷20號",
    "連絡電話":"(02)29907792",
    "項目":"職能治療"
    }
  },
  {
    "type": "Feature",
    "geometry": {
       "type": "Point",
       "coordinates":  [ 121.5431958,25.0252395 ]
    },
    "properties": {
    "醫療機構名稱":"永誠復健科診所",
    "地址":"臺北市大安區復興南路二段236號2樓",
    "連絡電話":"(02)27071608",
    "項目":"物理治療, 職能治療, 語言治療"
    }
  },
  {
    "type": "Feature",
    "geometry": {
       "type": "Point",
       "coordinates":  [ 121.5432824,25.0330026 ]
    },
    "properties": {
    "醫療機構名稱":"宇寧身心診所",
    "地址":"臺北市大安區復興南路二段6號3樓",
    "連絡電話":"(02)27080706",
    "項目":"心理治療"
    }
  },
  {
    "type": "Feature",
    "geometry": {
       "type": "Point",
       "coordinates":  [ 121.5474223,25.0822738 ]
    },
    "properties": {
    "醫療機構名稱":"愛能大直職能治療所",
    "地址":"臺北市中山區北安路595巷21號1樓",
    "連絡電話":"(02)28509112",
    "項目":"職能治療"
    }
  },
  {
    "type": "Feature",
    "geometry": {
       "type": "Point",
       "coordinates":  [ 121.52216,25.0577082 ]
    },
    "properties": {
    "醫療機構名稱":"森林語言治療所",
    "地址":"臺北市中山區民生西路16號5樓",
    "連絡電話":"(02)25239411",
    "項目":"語言治療"
    }
  },
  {
    "type": "Feature",
    "geometry": {
       "type": "Point",
       "coordinates":  [ 121.542572,25.057381 ]
    },
    "properties": {
    "醫療機構名稱":"珂斯汀物理治療所",
    "地址":"臺北市中山區民生東路三段88巷8號1樓",
    "連絡電話":"",
    "項目":"物理治療"
    }
  },
  {
    "type": "Feature",
    "geometry": {
       "type": "Point",
       "coordinates":  { }
    },
    "properties": {
    "醫療機構名稱":"承安診所(興安)",
    "地址":"臺北市中山區民生東路三段90號",
    "連絡電話":"(02)25032633",
    "項目":"職能治療, 語言治療"
    }
  },
  {
    "type": "Feature",
    "geometry": {
       "type": "Point",
       "coordinates":  [ 121.5298036,25.0594482 ]
    },
    "properties": {
    "醫療機構名稱":"響響語言治療所",
    "地址":"臺北市中山區吉林路236巷5號",
    "連絡電話":"(02)25810992",
    "項目":"語言治療"
    }
  },
  {
    "type": "Feature",
    "geometry": {
       "type": "Point",
       "coordinates":  [ 121.5329547,25.0597361 ]
    },
    "properties": {
    "醫療機構名稱":"睦霖復健科診所",
    "地址":"臺北市中山區松江路274號2樓",
    "連絡電話":"(02)25113500",
    "項目":"物理治療, 職能治療, 語言治療"
    }
  },
  {
    "type": "Feature",
    "geometry": {
       "type": "Point",
       "coordinates":  [ 121.532984,25.066886 ]
    },
    "properties": {
    "醫療機構名稱":"珂斯汀職能治療所",
    "地址":"臺北市中山區松江路530號2樓",
    "連絡電話":"",
    "項目":"職能治療"
    }
  },
  {
    "type": "Feature",
    "geometry": {
       "type": "Point",
       "coordinates":  [ 121.5437888,25.053458 ]
    },
    "properties": {
    "醫療機構名稱":"博士聽力所",
    "地址":"臺北市中山區復興北路164號7樓之1",
    "連絡電話":"(02)27185125",
    "項目":"語言治療"
    }
  },
  {
    "type": "Feature",
    "geometry": {
       "type": "Point",
       "coordinates":  { }
    },
    "properties": {
    "醫療機構名稱":"邁愷爾心理治療所",
    "地址":"臺北市中山區復興北路50號4樓",
    "連絡電話":"(02)27217557",
    "項目":"心理治療"
    }
  },
  {
    "type": "Feature",
    "geometry": {
       "type": "Point",
       "coordinates":  [ 121.519415,25.063631 ]
    },
    "properties": {
    "醫療機構名稱":"童樂語言治療所",
    "地址":"臺北市中山區撫順街41巷1-6號",
    "連絡電話":"",
    "項目":"語言治療"
    }
  },
  {
    "type": "Feature",
    "geometry": {
       "type": "Point",
       "coordinates":  { }
    },
    "properties": {
    "醫療機構名稱":"中山適康復健科診所",
    "地址":"臺北市中山區龍江路268號、270號2樓-1",
    "連絡電話":"(02)25155150",
    "項目":"物理治療, 職能治療, 語言治療"
    }
  },
  {
    "type": "Feature",
    "geometry": {
       "type": "Point",
       "coordinates":  [ 121.5248865,25.0458983 ]
    },
    "properties": {
    "醫療機構名稱":"彩虹樹職能治療所",
    "地址":"臺北市中正區北平東路20號3樓",
    "連絡電話":"(02)23910586",
    "項目":"職能治療"
    }
  },
  {
    "type": "Feature",
    "geometry": {
       "type": "Point",
       "coordinates":  [ 121.5178865,25.0463586 ]
    },
    "properties": {
    "醫療機構名稱":"朗朗語言治療所",
    "地址":"臺北市中正區忠孝西路一段45號11樓-4",
    "連絡電話":"",
    "項目":"語言治療"
    }
  },
  {
    "type": "Feature",
    "geometry": {
       "type": "Point",
       "coordinates":  [ 121.5323626,25.059702 ]
    },
    "properties": {
    "醫療機構名稱":"愛迪樂物理治療所",
    "地址":"臺北市中山區民生東路二段127巷19號",
    "連絡電話":"(02)25216043",
    "項目":"物理治療, 職能治療"
    }
  },
  {
    "type": "Feature",
    "geometry": {
       "type": "Point",
       "coordinates":  [ 121.5240723,25.0241761 ]
    },
    "properties": {
    "醫療機構名稱":"古亭適康復健科診所",
    "地址":"臺北市中正區南昌路二段200號1-2樓、地下室",
    "連絡電話":"(02)23675885",
    "項目":"物理治療, 職能治療, 語言治療"
    }
  },
  {
    "type": "Feature",
    "geometry": {
       "type": "Point",
       "coordinates":  [ 121.513919,25.041761 ]
    },
    "properties": {
    "醫療機構名稱":"懷寧復健科診所",
    "地址":"臺北市中正區懷寧街110號",
    "連絡電話":"(02)23122632",
    "項目":"物理治療, 職能治療, 語言治療"
    }
  },
  {
    "type": "Feature",
    "geometry": {
       "type": "Point",
       "coordinates":  [ 121.5199241,25.0300516 ]
    },
    "properties": {
    "醫療機構名稱":"夢飛翔物理治療所",
    "地址":"臺北市中正區羅斯福路一段94號2樓",
    "連絡電話":"(02)23222223",
    "項目":"職能治療"
    }
  },
  {
    "type": "Feature",
    "geometry": {
       "type": "Point",
       "coordinates":  [ 121.5208288,25.0288584 ]
    },
    "properties": {
    "醫療機構名稱":"盛開兒青心理治療所",
    "地址":"臺北市中正區羅斯福路二段10號5樓",
    "連絡電話":"(02)23913887",
    "項目":"心理治療"
    }
  },
  {
    "type": "Feature",
    "geometry": {
       "type": "Point",
       "coordinates":  [ 121.522008,25.027219 ]
    },
    "properties": {
    "醫療機構名稱":"吉兒心理治療所",
    "地址":"臺北市中正區羅斯福路二段70號9樓",
    "連絡電話":"(02)23560511",
    "項目":"心理治療"
    }
  },
  {
    "type": "Feature",
    "geometry": {
       "type": "Point",
       "coordinates":  [ 121.5285955,25.0198593 ]
    },
    "properties": {
    "醫療機構名稱":"古亭復健診所",
    "地址":"臺北市中正區羅斯福路三段162號一樓",
    "連絡電話":"(02)23680528",
    "項目":"職能治療, 語言治療"
    }
  },
  {
    "type": "Feature",
    "geometry": {
       "type": "Point",
       "coordinates":  [ 121.5842986,25.0787692 ]
    },
    "properties": {
    "醫療機構名稱":"適康復健科診所",
    "地址":"臺北市內湖區文德路141號143號",
    "連絡電話":"(02)87977566",
    "項目":"物理治療, 職能治療, 語言治療"
    }
  },
  {
    "type": "Feature",
    "geometry": {
       "type": "Point",
       "coordinates":  [ 121.5834445,25.0776949 ]
    },
    "properties": {
    "醫療機構名稱":"紫陽復健科診所",
    "地址":"臺北市內湖區文德路208巷8號1樓",
    "連絡電話":"(02)27988128",
    "項目":"職能治療"
    }
  },
  {
    "type": "Feature",
    "geometry": {
       "type": "Point",
       "coordinates":  [ 121.6047538,25.0716282 ]
    },
    "properties": {
    "醫療機構名稱":"內湖語言治療所",
    "地址":"臺北市內湖區民權東路六段266號9樓",
    "連絡電話":"",
    "項目":"語言治療"
    }
  },
  {
    "type": "Feature",
    "geometry": {
       "type": "Point",
       "coordinates":  [ 121.608352,25.071065 ]
    },
    "properties": {
    "醫療機構名稱":"好好玩心理治療所",
    "地址":"臺北市內湖區康寧路三段16巷78號1樓",
    "連絡電話":"(02)26305631",
    "項目":"心理治療"
    }
  },
  {
    "type": "Feature",
    "geometry": {
       "type": "Point",
       "coordinates":  [ 121.6100805,25.0709706 ]
    },
    "properties": {
    "醫療機構名稱":"祐生復健科診所",
    "地址":"臺北市內湖區康寧路三段54-11號1樓",
    "連絡電話":"(02)26341998",
    "項目":"職能治療"
    }
  },
  {
    "type": "Feature",
    "geometry": {
       "type": "Point",
       "coordinates":  [ 121.5754971,25.0778433 ]
    },
    "properties": {
    "醫療機構名稱":"恆新復健科診所",
    "地址":"臺北市內湖區瑞光路337號7樓",
    "連絡電話":"(02)26278666",
    "項目":"物理治療, 職能治療, 語言治療, 心理治療"
    }
  },
  {
    "type": "Feature",
    "geometry": {
       "type": "Point",
       "coordinates":  [ 121.5754083,25.0778823 ]
    },
    "properties": {
    "醫療機構名稱":"國泰醫療財團法人內湖國泰診所",
    "地址":"臺北市內湖區瑞光路337號C棟1-4樓",
    "連絡電話":"(02)87972121",
    "項目":"物理治療, 職能治療, 語言治療"
    }
  },
  {
    "type": "Feature",
    "geometry": {
       "type": "Point",
       "coordinates":  [ 121.5579607,24.9984589 ]
    },
    "properties": {
    "醫療機構名稱":"嘉美言語語言治療所",
    "地址":"臺北市文山區興隆路三段152巷16號1樓",
    "連絡電話":"",
    "項目":"語言治療"
    }
  },
  {
    "type": "Feature",
    "geometry": {
       "type": "Point",
       "coordinates":  [ 121.5597922,24.994974 ]
    },
    "properties": {
    "醫療機構名稱":"文山復健科診所",
    "地址":"臺北市文山區興隆路三段207之4號1樓",
    "連絡電話":"(02)22397887",
    "項目":"職能治療"
    }
  },
  {
    "type": "Feature",
    "geometry": {
       "type": "Point",
       "coordinates":  [ 121.5625156,24.9826033 ]
    },
    "properties": {
    "醫療機構名稱":"合康復健科診所",
    "地址":"臺北市文山區興隆路四段217號1-2樓",
    "連絡電話":"(02)29368421",
    "項目":"物理治療, 職能治療"
    }
  },
  {
    "type": "Feature",
    "geometry": {
       "type": "Point",
       "coordinates":  [ 121.5391564,25.004711 ]
    },
    "properties": {
    "醫療機構名稱":"萬隆力康復健科診所",
    "地址":"臺北市文山區羅斯福路五段127號2樓、129號2樓",
    "連絡電話":"(02)89319799 ",
    "項目":"物理治療, 職能治療, 語言治療"
    }
  },
  {
    "type": "Feature",
    "geometry": {
       "type": "Point",
       "coordinates":  [ 121.5013459,25.128338 ]
    },
    "properties": {
    "醫療機構名稱":"祐民聯合診所",
    "地址":"臺北市北投區中央南路一段207號",
    "連絡電話":"(02)28951301",
    "項目":"職能治療"
    }
  },
  {
    "type": "Feature",
    "geometry": {
       "type": "Point",
       "coordinates":  [ 121.5133435,25.1091319 ]
    },
    "properties": {
    "醫療機構名稱":"石牌實和復健診所",
    "地址":"臺北市北投區文林北路262號1樓",
    "連絡電話":"(02)28273255",
    "項目":"物理治療, 職能治療, 語言治療"
    }
  },
  {
    "type": "Feature",
    "geometry": {
       "type": "Point",
       "coordinates":  [ 121.5104796,25.1130411 ]
    },
    "properties": {
    "醫療機構名稱":"旭康復健科診所",
    "地址":"臺北市北投區石牌路一段40號",
    "連絡電話":"(02)28280067",
    "項目":"物理治療, 職能治療, 語言治療"
    }
  },
  {
    "type": "Feature",
    "geometry": {
       "type": "Point",
       "coordinates":  [ 121.5139064,25.1183984 ]
    },
    "properties": {
    "醫療機構名稱":"辰光心理治療所",
    "地址":"臺北市北投區立農街二段202巷2弄1號",
    "連絡電話":"",
    "項目":"心理治療"
    }
  },
  {
    "type": "Feature",
    "geometry": {
       "type": "Point",
       "coordinates":  [ 121.5210206,25.1185042 ]
    },
    "properties": {
    "醫療機構名稱":"天母力康診所",
    "地址":"臺北市北投區明德路365號教學大樓3樓",
    "連絡電話":"(02)28210866",
    "項目":"物理治療, 職能治療, 語言治療"
    }
  },
  {
    "type": "Feature",
    "geometry": {
       "type": "Point",
       "coordinates":  [ 121.5127529,25.1130531 ]
    },
    "properties": {
    "醫療機構名稱":"家語言治療所",
    "地址":"臺北市北投區致遠一路2段107號",
    "連絡電話":"(02)28217003",
    "項目":"語言治療"
    }
  },
  {
    "type": "Feature",
    "geometry": {
       "type": "Point",
       "coordinates":  [ 121.4893527,25.1408385 ]
    },
    "properties": {
    "醫療機構名稱":"稻香職能治療所-委託臺北榮民總醫院經營管理",
    "地址":"臺北市北投區稻香路81號",
    "連絡電話":"(02)28956001",
    "項目":"職能治療"
    }
  },
  {
    "type": "Feature",
    "geometry": {
       "type": "Point",
       "coordinates":  [ 121.5020468,25.1332926 ]
    },
    "properties": {
    "醫療機構名稱":"安安優腦職能治療所",
    "地址":"臺北市北投區磺港路8號7樓",
    "連絡電話":"(02)28912323",
    "項目":"職能治療"
    }
  },
  {
    "type": "Feature",
    "geometry": {
       "type": "Point",
       "coordinates":  [ 121.5600923,25.049942 ]
    },
    "properties": {
    "醫療機構名稱":"悠適復健科診所",
    "地址":"臺北市松山區光復北路11巷65.67號",
    "連絡電話":"(02)27493088",
    "項目":"物理治療, 職能治療, 語言治療"
    }
  },
  {
    "type": "Feature",
    "geometry": {
       "type": "Point",
       "coordinates":  [ 121.557089,25.052812 ]
    },
    "properties": {
    "醫療機構名稱":"正風復健科診所",
    "地址":"臺北市松山區光復北路135號1樓",
    "連絡電話":"(02)27602666",
    "項目":"職能治療, 語言治療"
    }
  },
  {
    "type": "Feature",
    "geometry": {
       "type": "Point",
       "coordinates":  [ 121.5555173,25.0551967 ]
    },
    "properties": {
    "醫療機構名稱":"松原復健診所",
    "地址":"臺北市松山區光復北路206號1樓",
    "連絡電話":"(02)87123552",
    "項目":"職能治療"
    }
  },
  {
    "type": "Feature",
    "geometry": {
       "type": "Point",
       "coordinates":  { }
    },
    "properties": {
    "醫療機構名稱":"康健診所",
    "地址":"臺北市松山區延吉街11號2樓",
    "連絡電話":"(02)25779682",
    "項目":"物理治療, 職能治療, 心理治療"
    }
  },
  {
    "type": "Feature",
    "geometry": {
       "type": "Point",
       "coordinates":  [ 121.5534632,25.0514424 ]
    },
    "properties": {
    "醫療機構名稱":"轉轉心理治療所",
    "地址":"臺北市松山區南京東路四段50號9樓之6",
    "連絡電話":"(02)25796965",
    "項目":"心理治療"
    }
  },
  {
    "type": "Feature",
    "geometry": {
       "type": "Point",
       "coordinates":  [ 121.5485644,25.0536176 ]
    },
    "properties": {
    "醫療機構名稱":"荷普職能治療所",
    "地址":"臺北市松山區敦化北路114、116號2樓",
    "連絡電話":"(02)25472315",
    "項目":"職能治療, 語言治療"
    }
  },
  {
    "type": "Feature",
    "geometry": {
       "type": "Point",
       "coordinates":  [ 121.5484626,25.053688 ]
    },
    "properties": {
    "醫療機構名稱":"安兒康小兒專科診所",
    "地址":"臺北市松山區敦化北路118號",
    "連絡電話":"(02)77287688",
    "項目":"心理治療"
    }
  },
  {
    "type": "Feature",
    "geometry": {
       "type": "Point",
       "coordinates":  [ 121.5696224,25.0237507 ]
    },
    "properties": {
    "醫療機構名稱":"六安復健科診所",
    "地址":"臺北市信義區吳興街467巷2弄14號",
    "連絡電話":"(02)27296677",
    "項目":"物理治療, 職能治療"
    }
  },
  {
    "type": "Feature",
    "geometry": {
       "type": "Point",
       "coordinates":  [ 121.555762,25.0269792 ]
    },
    "properties": {
    "醫療機構名稱":"原力復健科診所",
    "地址":"臺北市信義區基隆路二段145號B1、1、2樓",
    "連絡電話":"(02)27327091",
    "項目":"物理治療, 職能治療, 語言治療, 心理治療"
    }
  },
  {
    "type": "Feature",
    "geometry": {
       "type": "Point",
       "coordinates":  [ 121.5645773,25.0276328 ]
    },
    "properties": {
    "醫療機構名稱":"順康復健科診所",
    "地址":"臺北市信義區莊敬路364號1、2樓",
    "連絡電話":"(02)23450011",
    "項目":"物理治療, 職能治療"
    }
  },
  {
    "type": "Feature",
    "geometry": {
       "type": "Point",
       "coordinates":  [ 121.6047806,25.0547564 ]
    },
    "properties": {
    "醫療機構名稱":"開馨診所",
    "地址":"臺北市南港區南港路二段38巷6-1號1 樓",
    "連絡電話":"(02)26532987",
    "項目":"職能治療, 語言治療, 心理治療"
    }
  },
  {
    "type": "Feature",
    "geometry": {
       "type": "Point",
       "coordinates":  [ 121.5093038,25.0473584 ]
    },
    "properties": {
    "醫療機構名稱":"彭聆語言治療所",
    "地址":"臺北市萬華區中華路一段16號",
    "連絡電話":"(02)23880648",
    "項目":"語言治療"
    }
  },
  {
    "type": "Feature",
    "geometry": {
       "type": "Point",
       "coordinates":  [ 121.4948197,25.0280431 ]
    },
    "properties": {
    "醫療機構名稱":"瑞生診所",
    "地址":"臺北市萬華區西園路二段250號2樓",
    "連絡電話":"(02)23012788",
    "項目":"職能治療"
    }
  },
  {
    "type": "Feature",
    "geometry": {
       "type": "Point",
       "coordinates":  [ 121.5042939,25.0380699 ]
    },
    "properties": {
    "醫療機構名稱":"永康診所",
    "地址":"臺北市萬華區桂林路47號",
    "連絡電話":"(02)23123455",
    "項目":"職能治療"
    }
  }
]
}