{
   "type": "FeatureCollection",
   "features": [
  {
    "type": "Feature",
    "geometry": {
       "type": "Point",
       "coordinates":  [ 121.5166038,25.0299013 ]
    },
    "properties": {
    "type":"台北健康服務中心",
    "name":"中正區健康服務中心",
    "address":"台北市牯嶺街24號",
    "telephone":"(02)23215158"
    }
  },
  {
    "type": "Feature",
    "geometry": {
       "type": "Point",
       "coordinates":  [ 121.547065,25.0182404 ]
    },
    "properties": {
    "type":"台北健康服務中心",
    "name":"大安區健康服務中心",
    "address":"台北市辛亥路三段15號",
    "telephone":"(02)27335831"
    }
  },
  {
    "type": "Feature",
    "geometry": {
       "type": "Point",
       "coordinates":  [ 121.5819704,25.0377175 ]
    },
    "properties": {
    "type":"台北健康服務中心",
    "name":"信義區健康服務中心",
    "address":"台北市信義區福德街86號11樓",
    "telephone":"(02)27234598"
    }
  },
  {
    "type": "Feature",
    "geometry": {
       "type": "Point",
       "coordinates":  [ 121.6134839,25.0550982 ]
    },
    "properties": {
    "type":"台北健康服務中心",
    "name":"南港區健康服務中心",
    "address":"台北市南港路一段360號",
    "telephone":"(02)27825220 　"
    }
  },
  {
    "type": "Feature",
    "geometry": {
       "type": "Point",
       "coordinates":  [ 121.58897363797335,25.069577076399952 ]
    },
    "properties": {
    "type":"台北健康服務中心",
    "name":"內湖區健康服務中心",
    "address":"台北市民權東路六段99號",
    "telephone":"(02)27911162"
    }
  },
  {
    "type": "Feature",
    "geometry": {
       "type": "Point",
       "coordinates":  [ 121.5219944,25.12071 ]
    },
    "properties": {
    "type":"台北健康服務中心",
    "name":"北投區健康服務中心",
    "address":"台北市石牌路二段111號3樓1樓",
    "telephone":"(02)28261026"
    }
  },
  {
    "type": "Feature",
    "geometry": {
       "type": "Point",
       "coordinates":  [ 121.5204984,25.0934278 ]
    },
    "properties": {
    "type":"台北健康服務中心",
    "name":"士林區健康服務中心",
    "address":"台北市中正路439號",
    "telephone":"(02)28813039　"
    }
  },
  {
    "type": "Feature",
    "geometry": {
       "type": "Point",
       "coordinates":  [ 121.57724369379672,25.0499791106092 ]
    },
    "properties": {
    "type":"台北健康服務中心",
    "name":"松山區健康服務中心",
    "address":"台北巿八德路四段692號2樓",
    "telephone":"(02)27671757"
    }
  },
  {
    "type": "Feature",
    "geometry": {
       "type": "Point",
       "coordinates":  [ 121.5141578,25.0658176 ]
    },
    "properties": {
    "type":"台北健康服務中心",
    "name":"大同區健康服務中心",
    "address":"台北市昌吉街52號",
    "telephone":"(02)25853227 　"
    }
  },
  {
    "type": "Feature",
    "geometry": {
       "type": "Point",
       "coordinates":  [ 121.4983425,25.0216682 ]
    },
    "properties": {
    "type":"台北健康服務中心",
    "name":"萬華區健康服務中心",
    "address":"台北市東園街152號",
    "telephone":"(02)23033092"
    }
  },
  {
    "type": "Feature",
    "geometry": {
       "type": "Point",
       "coordinates":  [ 121.5694542,24.9897856 ]
    },
    "properties": {
    "type":"台北健康服務中心",
    "name":"文山區健康服務中心",
    "address":"台北市木柵路三段220號",
    "telephone":"(02)22343501"
    }
  },
  {
    "type": "Feature",
    "geometry": {
       "type": "Point",
       "coordinates":  [ 121.5335285,25.0663904 ]
    },
    "properties": {
    "type":"台北健康服務中心",
    "name":"中山區健康服務中心",
    "address":"台北市松江路367號7樓",
    "telephone":"(02)25014616　"
    }
  }
]
}