{
   "type": "FeatureCollection",
   "features": [
  {
    "type": "Feature",
    "geometry": {
       "type": "Point",
       "coordinates":  [ 121.5068842,24.9980653 ]
    },
    "properties": {
    "機構名稱":"景安護理之家",
    "地址":"新北市中和區泰安里景安路42號5樓、46號4-5樓、50號3-4樓",
    "行政區":"中和區"
    }
  },
  {
    "type": "Feature",
    "geometry": {
       "type": "Point",
       "coordinates":  [ 121.5068566,24.9980625 ]
    },
    "properties": {
    "機構名稱":"新北市私立宜安老人長期照顧中心(養護型)",
    "地址":"新北市中和區泰安里景安路48號7樓",
    "行政區":"中和區"
    }
  },
  {
    "type": "Feature",
    "geometry": {
       "type": "Point",
       "coordinates":  [ 121.4549298,25.020646 ]
    },
    "properties": {
    "機構名稱":"新北市私立桐心老人長期照顧中心(養護型)",
    "地址":"新北市板橋區港尾里中正路302號2樓",
    "行政區":"板橋區"
    }
  },
  {
    "type": "Feature",
    "geometry": {
       "type": "Point",
       "coordinates":  [ 121.4667915,25.0433821 ]
    },
    "properties": {
    "機構名稱":"新北市私立圓滿老人長期照顧中心(養護型)",
    "地址":"新北市三重區中興里重新路五段639號10樓及639-1號10樓",
    "行政區":"三重區"
    }
  },
  {
    "type": "Feature",
    "geometry": {
       "type": "Point",
       "coordinates":  [ 121.3403371,24.9514905 ]
    },
    "properties": {
    "機構名稱":"新北市私立愛鄰田園老人長期照顧中心(養護型)",
    "地址":"新北市鶯歌區永昌里建國路596巷40號",
    "行政區":"鶯歌區"
    }
  },
  {
    "type": "Feature",
    "geometry": {
       "type": "Point",
       "coordinates":  [ 121.4694784,25.0125203 ]
    },
    "properties": {
    "機構名稱":"海山護理之家",
    "地址":"新北市板橋區長安里漢生東路163號4樓、4樓之1、5樓、5樓之1",
    "行政區":"板橋區"
    }
  },
  {
    "type": "Feature",
    "geometry": {
       "type": "Point",
       "coordinates":  [ 121.4583769,25.041292 ]
    },
    "properties": {
    "機構名稱":"新北市私立景頤老人長期照顧中心(養護型)",
    "地址":"新北市新莊區思源路87巷18號3樓之1",
    "行政區":"新莊區"
    }
  },
  {
    "type": "Feature",
    "geometry": {
       "type": "Point",
       "coordinates":  [ 121.4928674,25.0037833 ]
    },
    "properties": {
    "機構名稱":"新北市私立中山老人長期照顧中心(養護型)",
    "地址":"新北市中和區中原里橋安街6號2~3樓",
    "行政區":"中和區"
    }
  },
  {
    "type": "Feature",
    "geometry": {
       "type": "Point",
       "coordinates":  [ 121.4875238,25.0046859 ]
    },
    "properties": {
    "機構名稱":"新北市私立福泰老人長期照顧中心(養護型)",
    "地址":"新北市中和區碧河里中山路二段371號4樓",
    "行政區":"中和區"
    }
  },
  {
    "type": "Feature",
    "geometry": {
       "type": "Point",
       "coordinates":  [ 121.5191061,25.0135175 ]
    },
    "properties": {
    "機構名稱":"新北市私立寶安老人長期照顧中心(養護型)",
    "地址":"新北市永和區上林里竹林路73號2~3樓",
    "行政區":"永和區"
    }
  },
  {
    "type": "Feature",
    "geometry": {
       "type": "Point",
       "coordinates":  [ 121.4296291,24.9922026 ]
    },
    "properties": {
    "機構名稱":"三芳護理之家",
    "地址":"新北市板橋區崑崙里大觀路三段236號6樓",
    "行政區":"板橋區"
    }
  },
  {
    "type": "Feature",
    "geometry": {
       "type": "Point",
       "coordinates":  [ 121.4913394,25.076407 ]
    },
    "properties": {
    "機構名稱":"新北市私立蓮愛老人養護中心",
    "地址":"新北市三重區溪美里溪尾街41號2樓",
    "行政區":"三重區"
    }
  },
  {
    "type": "Feature",
    "geometry": {
       "type": "Point",
       "coordinates":  [ 121.511516,25.008185 ]
    },
    "properties": {
    "機構名稱":"新北市私立宏德老人長期照顧中心(養護型)",
    "地址":"新北市永和區協和里永平路81巷12號2樓",
    "行政區":"永和區"
    }
  },
  {
    "type": "Feature",
    "geometry": {
       "type": "Point",
       "coordinates":  [ 121.4533062,25.1064611 ]
    },
    "properties": {
    "機構名稱":"新北市私立再芳老人長期照顧中心(養護型)",
    "地址":"新北市五股區成泰路四段10號3樓之2",
    "行政區":"五股區"
    }
  },
  {
    "type": "Feature",
    "geometry": {
       "type": "Point",
       "coordinates":  [ 121.4741986,25.0236124 ]
    },
    "properties": {
    "機構名稱":"上和長照社團法人附設新北市私立迎和住宿長照機構",
    "地址":"新北市板橋區忠翠里莒光路167號2樓之9",
    "行政區":"板橋區"
    }
  },
  {
    "type": "Feature",
    "geometry": {
       "type": "Point",
       "coordinates":  [ 121.4940351,25.0017116 ]
    },
    "properties": {
    "機構名稱":"新北市私立慈美老人養護中心",
    "地址":"新北市中和區連和里中山路二段315巷2號6樓",
    "行政區":"中和區"
    }
  },
  {
    "type": "Feature",
    "geometry": {
       "type": "Point",
       "coordinates":  [ 121.4940517,25.0016962 ]
    },
    "properties": {
    "機構名稱":"新北市私立慈美護理之家",
    "地址":"新北市中和區連和里中山路二段315巷2號4樓、317號6樓",
    "行政區":"中和區"
    }
  },
  {
    "type": "Feature",
    "geometry": {
       "type": "Point",
       "coordinates":  [ 121.605884,25.0016498 ]
    },
    "properties": {
    "機構名稱":"詠靜護理之家",
    "地址":"新北市深坑區萬順里北深路三段99、101、103號3-4樓、105號1、3、4樓",
    "行政區":"深坑區"
    }
  },
  {
    "type": "Feature",
    "geometry": {
       "type": "Point",
       "coordinates":  [ 121.5011529,25.2554052 ]
    },
    "properties": {
    "機構名稱":"新北市私立長勤老人長期照顧中心(養護型)",
    "地址":"新北市三芝區埔頭里長勤街63號",
    "行政區":"三芝區"
    }
  },
  {
    "type": "Feature",
    "geometry": {
       "type": "Point",
       "coordinates":  [ 121.4700695,25.078071 ]
    },
    "properties": {
    "機構名稱":"新北市私立捷安護理之家",
    "地址":"新北市蘆洲區中山一路300號",
    "行政區":"蘆洲區"
    }
  },
  {
    "type": "Feature",
    "geometry": {
       "type": "Point",
       "coordinates":  [ 121.550628,24.9780114 ]
    },
    "properties": {
    "機構名稱":"私立再生護理之家",
    "地址":"新北市新店區寶高路6號",
    "行政區":"新店區"
    }
  },
  {
    "type": "Feature",
    "geometry": {
       "type": "Point",
       "coordinates":  [ 121.4954318,25.0348821 ]
    },
    "properties": {
    "機構名稱":"財團法人台北市私立愛愛院",
    "地址":"台北市萬華區大理街175巷27號",
    "行政區":"萬華區"
    }
  },
  {
    "type": "Feature",
    "geometry": {
       "type": "Point",
       "coordinates":  [ 121.483233,25.005263 ]
    },
    "properties": {
    "機構名稱":"新北市私立一德老人長期照顧中心(養護型)",
    "地址":"新北市中和區中原里中山路二段560號7樓",
    "行政區":"中和區"
    }
  },
  {
    "type": "Feature",
    "geometry": {
       "type": "Point",
       "coordinates":  [ 121.7081216,25.1456611 ]
    },
    "properties": {
    "機構名稱":"基隆市私立順逸老人長期照顧中心(養護型)",
    "地址":"基隆市安樂區基金一路210巷58號",
    "行政區":"安樂區"
    }
  },
  {
    "type": "Feature",
    "geometry": {
       "type": "Point",
       "coordinates":  [ 121.4155293,25.0026406 ]
    },
    "properties": {
    "機構名稱":"新北市私立保安老人長期照顧中心(養護型)",
    "地址":"新北市樹林區保安街二段64號4樓",
    "行政區":"樹林區"
    }
  },
  {
    "type": "Feature",
    "geometry": {
       "type": "Point",
       "coordinates":  [ 121.4933445,25.0017042 ]
    },
    "properties": {
    "機構名稱":"新北市私立忠祥老人長期照顧中心(養護型)",
    "地址":"新北市中和區連和里中山路二段327巷1號4樓",
    "行政區":"中和區"
    }
  },
  {
    "type": "Feature",
    "geometry": {
       "type": "Point",
       "coordinates":  [ 121.4714629,25.01477 ]
    },
    "properties": {
    "機構名稱":"新北市私立連旺老人長期照顧中心(養護型)",
    "地址":"新北市板橋區香丘里中山路一段311號、313號、315之1號",
    "行政區":"板橋區"
    }
  },
  {
    "type": "Feature",
    "geometry": {
       "type": "Point",
       "coordinates":  [ 121.4391238,24.9726135 ]
    },
    "properties": {
    "機構名稱":"元復醫院附設護理之家",
    "地址":"新北市土城區慶樂街25號",
    "行政區":"土城區"
    }
  },
  {
    "type": "Feature",
    "geometry": {
       "type": "Point",
       "coordinates":  [ 121.5022874,25.0029922 ]
    },
    "properties": {
    "機構名稱":"新北市私立雙和老人長期照顧中心(養護型)",
    "地址":"新北市中和區福和里中山路二段133號2樓",
    "行政區":"中和區"
    }
  },
  {
    "type": "Feature",
    "geometry": {
       "type": "Point",
       "coordinates":  [ 121.4557802,24.9962026 ]
    },
    "properties": {
    "機構名稱":"新北市私立瑞昇老人長期照顧中心(養護型)",
    "地址":"新北市板橋區鄉雲里四川路二段16巷1號1樓",
    "行政區":"板橋區"
    }
  },
  {
    "type": "Feature",
    "geometry": {
       "type": "Point",
       "coordinates":  [ 121.4533062,25.1064611 ]
    },
    "properties": {
    "機構名稱":"新北市私立尚承護理之家",
    "地址":"新北市五股區成泰路四段10號3樓之1",
    "行政區":"五股區"
    }
  },
  {
    "type": "Feature",
    "geometry": {
       "type": "Point",
       "coordinates":  [ 121.2999821,24.9637994 ]
    },
    "properties": {
    "機構名稱":"桃園市私立八德老人長期照顧中心(養護型)",
    "地址":"桃園市八德區介壽路一段758巷8號",
    "行政區":"八德區"
    }
  },
  {
    "type": "Feature",
    "geometry": {
       "type": "Point",
       "coordinates":  [ 121.512167,25.084122 ]
    },
    "properties": {
    "機構名稱":"臺北市私立上美老人長期照顧中心(養護型)",
    "地址":"台北市士林區重慶北路四段162號1-4樓",
    "行政區":"士林區"
    }
  },
  {
    "type": "Feature",
    "geometry": {
       "type": "Point",
       "coordinates":  [ 121.374833,24.9357679 ]
    },
    "properties": {
    "機構名稱":"新北市私立安新老人長期照顧中心(養護型)",
    "地址":"新北市三峽區民生街83號4樓、85號4樓及5樓",
    "行政區":"三峽區"
    }
  },
  {
    "type": "Feature",
    "geometry": {
       "type": "Point",
       "coordinates":  [ 121.4550454,25.1607888 ]
    },
    "properties": {
    "機構名稱":"紅樹林護理之家",
    "地址":"新北市淡水區中正東路一段111巷22號",
    "行政區":"淡水區"
    }
  },
  {
    "type": "Feature",
    "geometry": {
       "type": "Point",
       "coordinates":  [ 121.5112171,25.0843812 ]
    },
    "properties": {
    "機構名稱":"百齡診所附設護理之家",
    "地址":"台北市士林區重慶北路四段187號",
    "行政區":"士林區"
    }
  },
  {
    "type": "Feature",
    "geometry": {
       "type": "Point",
       "coordinates":  [ 121.4102927,25.0165645 ]
    },
    "properties": {
    "機構名稱":"新北市私立嘉宥老人長期照顧中心(養護型)",
    "地址":"新北市樹林區中正路632巷1號2樓",
    "行政區":"樹林區"
    }
  },
  {
    "type": "Feature",
    "geometry": {
       "type": "Point",
       "coordinates":  [ 121.413492,25.027883 ]
    },
    "properties": {
    "機構名稱":"新北市私立健安老人長期照顧中心(養護型)",
    "地址":"新北市新莊區雙鳳路121、123號7樓",
    "行政區":"新莊區"
    }
  },
  {
    "type": "Feature",
    "geometry": {
       "type": "Point",
       "coordinates":  [ 121.4611414,25.0446148 ]
    },
    "properties": {
    "機構名稱":"佳新護理之家",
    "地址":"新北市新莊區復興路三段31號1~4樓及33號3~4樓",
    "行政區":"新莊區"
    }
  },
  {
    "type": "Feature",
    "geometry": {
       "type": "Point",
       "coordinates":  [ 121.5034,25.003981 ]
    },
    "properties": {
    "機構名稱":"新北市私立永泰老人養護中心",
    "地址":"新北市中和區福和里中山路二段101號",
    "行政區":"中和區"
    }
  },
  {
    "type": "Feature",
    "geometry": {
       "type": "Point",
       "coordinates":  [ 121.4935985,25.0009826 ]
    },
    "properties": {
    "機構名稱":"新北市私立逢源老人長期照顧中心(養護型)",
    "地址":"新北市中和區連和里中山路二段327巷9號3樓",
    "行政區":"中和區"
    }
  },
  {
    "type": "Feature",
    "geometry": {
       "type": "Point",
       "coordinates":  [ 121.4457844,25.0345179 ]
    },
    "properties": {
    "機構名稱":"新北市私立長恩老人長期照顧中心(養護型)",
    "地址":"新北市新莊區中正路387、389、393號4樓",
    "行政區":"新莊區"
    }
  },
  {
    "type": "Feature",
    "geometry": {
       "type": "Point",
       "coordinates":  [ 121.48724,25.07676 ]
    },
    "properties": {
    "機構名稱":"三和護理之家",
    "地址":"新北市三重區福隆里三和路四段103之2號4、6~7樓",
    "行政區":"三重區"
    }
  },
  {
    "type": "Feature",
    "geometry": {
       "type": "Point",
       "coordinates":  [ 121.6730933,25.06703 ]
    },
    "properties": {
    "機構名稱":"佳醫護理之家",
    "地址":"新北市汐止區茄苳里茄苳路296號",
    "行政區":"汐止區"
    }
  },
  {
    "type": "Feature",
    "geometry": {
       "type": "Point",
       "coordinates":  [ 121.4580636,24.981404 ]
    },
    "properties": {
    "機構名稱":"新北市私立大眾老人養護中心",
    "地址":"新北市土城區清水路114號2樓",
    "行政區":"土城區"
    }
  },
  {
    "type": "Feature",
    "geometry": {
       "type": "Point",
       "coordinates":  [ 121.4580439,24.9814478 ]
    },
    "properties": {
    "機構名稱":"新北市私立木新居護理之家",
    "地址":"新北市土城區清水路114號3-5樓",
    "行政區":"土城區"
    }
  },
  {
    "type": "Feature",
    "geometry": {
       "type": "Point",
       "coordinates":  [ 121.4659334,25.0492422 ]
    },
    "properties": {
    "機構名稱":"新北市私立珍珍老人長期照顧中心(養護型)",
    "地址":"新北市新莊區化成路354號3樓",
    "行政區":"新莊區"
    }
  },
  {
    "type": "Feature",
    "geometry": {
       "type": "Point",
       "coordinates":  [ 121.4659132,25.0492406 ]
    },
    "properties": {
    "機構名稱":"新北市私立永瑞老人長期照顧中心(養護型)",
    "地址":"新北市新莊區化成路354號4樓",
    "行政區":"新莊區"
    }
  },
  {
    "type": "Feature",
    "geometry": {
       "type": "Point",
       "coordinates":  [ 121.4139429,25.0279579 ]
    },
    "properties": {
    "機構名稱":"新北市私立佳康老人長期照顧中心(養護型)",
    "地址":"新北市新莊區雙鳳路113號4樓",
    "行政區":"新莊區"
    }
  },
  {
    "type": "Feature",
    "geometry": {
       "type": "Point",
       "coordinates":  [ 121.5019866,25.0445889 ]
    },
    "properties": {
    "機構名稱":"臺北市私立中山老人長期照顧中心(養護型)",
    "地址":"台北市萬華區峨眉街124、124-1號1樓",
    "行政區":"萬華區"
    }
  },
  {
    "type": "Feature",
    "geometry": {
       "type": "Point",
       "coordinates":  [ 121.3519227,24.9568205 ]
    },
    "properties": {
    "機構名稱":"新北市私立佳緣老人長期照顧中心(養護型)",
    "地址":"新北市鶯歌區西鶯里中山路41號",
    "行政區":"鶯歌區"
    }
  },
  {
    "type": "Feature",
    "geometry": {
       "type": "Point",
       "coordinates":  [ 121.4603656,24.9909406 ]
    },
    "properties": {
    "機構名稱":"新北市私立慧心老人長期照顧中心(養護型)",
    "地址":"新北市板橋區廣福里廣權路2號2樓",
    "行政區":"板橋區"
    }
  },
  {
    "type": "Feature",
    "geometry": {
       "type": "Point",
       "coordinates":  [ 121.4603656,24.9909406 ]
    },
    "properties": {
    "機構名稱":"新北市私立心田老人長期照顧中心(養護型)",
    "地址":"新北市板橋區廣福里廣權路2號3樓",
    "行政區":"板橋區"
    }
  },
  {
    "type": "Feature",
    "geometry": {
       "type": "Point",
       "coordinates":  [ 121.4624675,25.0072996 ]
    },
    "properties": {
    "機構名稱":"慈馨護理之家",
    "地址":"新北市板橋區後埔里館前東路96號2樓",
    "行政區":"板橋區"
    }
  },
  {
    "type": "Feature",
    "geometry": {
       "type": "Point",
       "coordinates":  [ 121.6630496,25.0708146 ]
    },
    "properties": {
    "機構名稱":"新北市私立德馨老人長期照顧中心(養護型)",
    "地址":"新北市汐止區仁德里和平街8號5樓",
    "行政區":"汐止區"
    }
  },
  {
    "type": "Feature",
    "geometry": {
       "type": "Point",
       "coordinates":  [ 121.45206,25.1633112 ]
    },
    "properties": {
    "機構名稱":"新北市私立新明厚老人長期照顧中心(養護型)",
    "地址":"新北市淡水區中正東路一段27號1樓",
    "行政區":"淡水區"
    }
  },
  {
    "type": "Feature",
    "geometry": {
       "type": "Point",
       "coordinates":  [ 121.7139875,25.1273614 ]
    },
    "properties": {
    "機構名稱":"基隆市私立志心老人長期照顧中心(養護型)",
    "地址":"基隆市安樂區樂利三街189、193號",
    "行政區":"安樂區"
    }
  },
  {
    "type": "Feature",
    "geometry": {
       "type": "Point",
       "coordinates":  [ 121.7457117,25.1307084 ]
    },
    "properties": {
    "機構名稱":"基隆市私立健安老人長期照顧中心(養護型)",
    "地址":"基隆市中正區義二路2巷13號3樓",
    "行政區":"中正區"
    }
  },
  {
    "type": "Feature",
    "geometry": {
       "type": "Point",
       "coordinates":  [ 121.7212324,25.09458 ]
    },
    "properties": {
    "機構名稱":"基隆市私立宏安老人長期照顧中心(養護型)",
    "地址":"基隆市七堵區東新街91號2樓",
    "行政區":"七堵區"
    }
  },
  {
    "type": "Feature",
    "geometry": {
       "type": "Point",
       "coordinates":  [ 121.7777654,25.1352819 ]
    },
    "properties": {
    "機構名稱":"基隆市私立深美老人長期照顧中心(養護型)",
    "地址":"基隆市信義區教忠街37號",
    "行政區":"信義區"
    }
  },
  {
    "type": "Feature",
    "geometry": {
       "type": "Point",
       "coordinates":  [ 121.4556211,24.997073 ]
    },
    "properties": {
    "機構名稱":"新北市私立鴻祥老人長期照顧中心(養護型)",
    "地址":"新北市板橋區鄉雲里四川路二段16巷9號8樓",
    "行政區":"板橋區"
    }
  },
  {
    "type": "Feature",
    "geometry": {
       "type": "Point",
       "coordinates":  [ 121.4162299,24.9574614 ]
    },
    "properties": {
    "機構名稱":"新北市私立同心老人長期照顧中心(養護型)",
    "地址":"新北市土城區中央路四段127號9-10樓、9樓之1-11樓之1",
    "行政區":"土城區"
    }
  },
  {
    "type": "Feature",
    "geometry": {
       "type": "Point",
       "coordinates":  [ 121.4596963,25.0132424 ]
    },
    "properties": {
    "機構名稱":"私立健安護理之家",
    "地址":"新北市板橋區漢生里民權路174號",
    "行政區":"板橋區"
    }
  },
  {
    "type": "Feature",
    "geometry": {
       "type": "Point",
       "coordinates":  [ 121.4296291,24.9922026 ]
    },
    "properties": {
    "機構名稱":"新北市私立松樹老人長期照顧中心(養護型)",
    "地址":"新北市板橋區崑崙里大觀路三段236號7樓之1",
    "行政區":"板橋區"
    }
  },
  {
    "type": "Feature",
    "geometry": {
       "type": "Point",
       "coordinates":  [ 121.4296291,24.9922026 ]
    },
    "properties": {
    "機構名稱":"新北市私立松林老人長期照顧中心(養護型)",
    "地址":"新北市板橋區崑崙里大觀路三段236號7樓之2",
    "行政區":"板橋區"
    }
  },
  {
    "type": "Feature",
    "geometry": {
       "type": "Point",
       "coordinates":  [ 121.4296291,24.9922026 ]
    },
    "properties": {
    "機構名稱":"新北市私立松和老人長期照顧中心(養護型)",
    "地址":"新北市板橋區崑崙里大觀路三段236號7樓",
    "行政區":"板橋區"
    }
  },
  {
    "type": "Feature",
    "geometry": {
       "type": "Point",
       "coordinates":  [ 121.4296291,24.9922026 ]
    },
    "properties": {
    "機構名稱":"松和護理之家",
    "地址":"新北市板橋區崑崙里大觀路三段236號7樓之3",
    "行政區":"板橋區"
    }
  },
  {
    "type": "Feature",
    "geometry": {
       "type": "Point",
       "coordinates":  [ 121.5398228,24.9925426 ]
    },
    "properties": {
    "機構名稱":"景美醫院附設護理之家",
    "地址":"台北市文山區萬慶街18號3~4樓",
    "行政區":"文山區"
    }
  },
  {
    "type": "Feature",
    "geometry": {
       "type": "Point",
       "coordinates":  [ 121.4475181,24.9907596 ]
    },
    "properties": {
    "機構名稱":"私立健生護理之家",
    "地址":"新北市土城區中華路一段14號",
    "行政區":"土城區"
    }
  },
  {
    "type": "Feature",
    "geometry": {
       "type": "Point",
       "coordinates":  [ 121.4699726,25.0465179 ]
    },
    "properties": {
    "機構名稱":"兆興護理之家",
    "地址":"新北市三重區中興里中興北街19巷2號",
    "行政區":"三重區"
    }
  },
  {
    "type": "Feature",
    "geometry": {
       "type": "Point",
       "coordinates":  [ 121.4622866,24.9932506 ]
    },
    "properties": {
    "機構名稱":"祥蕙護理之家",
    "地址":"新北市板橋區和平里廣和街100號、100號2樓至5樓、102號",
    "行政區":"板橋區"
    }
  },
  {
    "type": "Feature",
    "geometry": {
       "type": "Point",
       "coordinates":  [ 121.4967582,25.0037374 ]
    },
    "properties": {
    "機構名稱":"新北市私立祥逸老人長期照顧中心(養護型)",
    "地址":"新北市中和區福善里景平路726-8號、726-6號2樓之1~3",
    "行政區":"中和區"
    }
  },
  {
    "type": "Feature",
    "geometry": {
       "type": "Point",
       "coordinates":  [ 121.5115037,24.9636558 ]
    },
    "properties": {
    "機構名稱":"財團法人豐榮護理之家",
    "地址":"新北市新店區安德街60巷26號、28號、30號及26號2樓、3樓、3樓之1",
    "行政區":"新店區"
    }
  },
  {
    "type": "Feature",
    "geometry": {
       "type": "Point",
       "coordinates":  [ 121.6303765,25.061456 ]
    },
    "properties": {
    "機構名稱":"新北市私立安濟老人長期照顧中心(養護型)",
    "地址":"新北市汐止區環河里福德一路351巷11弄18號2樓",
    "行政區":"汐止區"
    }
  },
  {
    "type": "Feature",
    "geometry": {
       "type": "Point",
       "coordinates":  [ 121.4871578,25.0767501 ]
    },
    "properties": {
    "機構名稱":"新北市私立大德老人長期照顧中心(養護型)",
    "地址":"新北市三重區福隆里三和路四段103-1號4樓",
    "行政區":"三重區"
    }
  },
  {
    "type": "Feature",
    "geometry": {
       "type": "Point",
       "coordinates":  [ 121.4869018,25.0768498 ]
    },
    "properties": {
    "機構名稱":"私立大愛護理之家",
    "地址":"新北市三重區福隆里三和路四段103-1號1~3樓",
    "行政區":"三重區"
    }
  },
  {
    "type": "Feature",
    "geometry": {
       "type": "Point",
       "coordinates":  [ 121.4602044,25.1611552 ]
    },
    "properties": {
    "機構名稱":"新北市私立崇惠老人長期照顧中心(養護型)",
    "地址":"新北市淡水區淡金路16巷117號",
    "行政區":"淡水區"
    }
  },
  {
    "type": "Feature",
    "geometry": {
       "type": "Point",
       "coordinates":  [ 121.4856981,25.0000326 ]
    },
    "properties": {
    "機構名稱":"新北市私立永順老人養護中心",
    "地址":"新北市中和區平河里建康路2號5樓",
    "行政區":"中和區"
    }
  },
  {
    "type": "Feature",
    "geometry": {
       "type": "Point",
       "coordinates":  [ 121.4301498,25.0317114 ]
    },
    "properties": {
    "機構名稱":"新北市私立智英老人長期照護中心",
    "地址":"新北市新莊區中正路544之36號1樓",
    "行政區":"新莊區"
    }
  },
  {
    "type": "Feature",
    "geometry": {
       "type": "Point",
       "coordinates":  [ 121.4300198,25.0317375 ]
    },
    "properties": {
    "機構名稱":"新北市私立中英老人養護中心",
    "地址":"新北市新莊區中正路544之36號2樓",
    "行政區":"新莊區"
    }
  },
  {
    "type": "Feature",
    "geometry": {
       "type": "Point",
       "coordinates":  [ 121.4301498,25.0317114 ]
    },
    "properties": {
    "機構名稱":"新北市私立傅英老人長期照顧中心(養護型)",
    "地址":"新北市新莊區中正路544之36號3樓",
    "行政區":"新莊區"
    }
  },
  {
    "type": "Feature",
    "geometry": {
       "type": "Point",
       "coordinates":  [ 121.4301498,25.0317114 ]
    },
    "properties": {
    "機構名稱":"新北市私立仁英老人養護中心",
    "地址":"新北市新莊區中正路544之36號4樓",
    "行政區":"新莊區"
    }
  },
  {
    "type": "Feature",
    "geometry": {
       "type": "Point",
       "coordinates":  [ 121.3803486,24.9402541 ]
    },
    "properties": {
    "機構名稱":"鴻欣護理之家",
    "地址":"新北市三峽區三樹路168巷48號",
    "行政區":"三峽區"
    }
  },
  {
    "type": "Feature",
    "geometry": {
       "type": "Point",
       "coordinates":  [ 121.605884,25.0016498 ]
    },
    "properties": {
    "機構名稱":"宏十字護理之家",
    "地址":"新北市深坑區萬順里北深路三段99、101、103、105號7-8樓",
    "行政區":"深坑區"
    }
  },
  {
    "type": "Feature",
    "geometry": {
       "type": "Point",
       "coordinates":  [ 121.6273968,25.2062176 ]
    },
    "properties": {
    "機構名稱":"財團法人新北市私立馨園老人養護中心",
    "地址":"新北市萬里區磺潭里公舘崙23之1號",
    "行政區":"萬里區"
    }
  },
  {
    "type": "Feature",
    "geometry": {
       "type": "Point",
       "coordinates":  [ 121.4162299,24.9574614 ]
    },
    "properties": {
    "機構名稱":"同仁醫院附設土城護理之家",
    "地址":"新北市土城區中央路四段127號1~8樓、2樓之1~8樓之1",
    "行政區":"土城區"
    }
  },
  {
    "type": "Feature",
    "geometry": {
       "type": "Point",
       "coordinates":  [ 121.5359298,24.9763593 ]
    },
    "properties": {
    "機構名稱":"天主教耕莘醫療財團法人附設耕莘護理之家",
    "地址":"新北市新店區中正路362號C棟1-2樓",
    "行政區":"新店區"
    }
  },
  {
    "type": "Feature",
    "geometry": {
       "type": "Point",
       "coordinates":  [ 121.4338009,25.0192829 ]
    },
    "properties": {
    "機構名稱":"新北市私立老吾老護理之家",
    "地址":"新北市新莊區新樹路315巷1號1~3樓",
    "行政區":"新莊區"
    }
  },
  {
    "type": "Feature",
    "geometry": {
       "type": "Point",
       "coordinates":  [ 121.459486,25.042257 ]
    },
    "properties": {
    "機構名稱":"新北市私立家安老人長期照顧中心(養護型)",
    "地址":"新北市新莊區思源路119號2樓、117號(2層)、119號2樓、121號2樓、123號2樓",
    "行政區":"新莊區"
    }
  },
  {
    "type": "Feature",
    "geometry": {
       "type": "Point",
       "coordinates":  [ 121.6356321,25.0674956 ]
    },
    "properties": {
    "機構名稱":"新北市私立好家園老人長期照顧中心(養護型)",
    "地址":"新北市汐止區興福里福德路38號2樓",
    "行政區":"汐止區"
    }
  },
  {
    "type": "Feature",
    "geometry": {
       "type": "Point",
       "coordinates":  [ 121.6356321,25.0674956 ]
    },
    "properties": {
    "機構名稱":"新北市私立美麗家園老人長期照顧中心(養護型)",
    "地址":"新北市汐止區興福里福德路38號7樓",
    "行政區":"汐止區"
    }
  },
  {
    "type": "Feature",
    "geometry": {
       "type": "Point",
       "coordinates":  [ 121.6356321,25.0674956 ]
    },
    "properties": {
    "機構名稱":"新北市私立幸福家園老人長期照顧中心(養護型)",
    "地址":"新北市汐止區興福里福德路38號12樓",
    "行政區":"汐止區"
    }
  },
  {
    "type": "Feature",
    "geometry": {
       "type": "Point",
       "coordinates":  [ 121.4882574,25.0024756 ]
    },
    "properties": {
    "機構名稱":"新北市私立安怡老人長期照顧中心(養護型)",
    "地址":"新北市中和區碧河里建一路87號3樓",
    "行政區":"中和區"
    }
  },
  {
    "type": "Feature",
    "geometry": {
       "type": "Point",
       "coordinates":  [ 121.5333741,24.9863129 ]
    },
    "properties": {
    "機構名稱":"溫昕護理之家",
    "地址":"新北市新店區中正路539-3號3~5樓",
    "行政區":"新店區"
    }
  },
  {
    "type": "Feature",
    "geometry": {
       "type": "Point",
       "coordinates":  [ 121.3677385,25.0587325 ]
    },
    "properties": {
    "機構名稱":"桃園市私立松林老人長期照顧中心(長期照護型)",
    "地址":"桃園市龜山區復興北路6巷42號",
    "行政區":"龜山區"
    }
  },
  {
    "type": "Feature",
    "geometry": {
       "type": "Point",
       "coordinates":  [ 121.3678517,25.058494 ]
    },
    "properties": {
    "機構名稱":"松林護理之家",
    "地址":"桃園市龜山區復興北路6巷46號",
    "行政區":"龜山區"
    }
  },
  {
    "type": "Feature",
    "geometry": {
       "type": "Point",
       "coordinates":  [ 121.4938882,24.9981501 ]
    },
    "properties": {
    "機構名稱":"新北市私立連城老人長期照顧中心(養護型)",
    "地址":"新北市中和區碧河里板南路337號4樓",
    "行政區":"中和區"
    }
  },
  {
    "type": "Feature",
    "geometry": {
       "type": "Point",
       "coordinates":  [ 121.4615486,24.9926977 ]
    },
    "properties": {
    "機構名稱":"新北市私立至傑護理之家",
    "地址":"新北市板橋區廣福里和平路14巷9號、9-1號",
    "行政區":"板橋區"
    }
  },
  {
    "type": "Feature",
    "geometry": {
       "type": "Point",
       "coordinates":  [ 121.5653482,24.9557416 ]
    },
    "properties": {
    "機構名稱":"財團法人私立廣恩老人養護中心",
    "地址":"新北市新店區北宜路二段579巷45號",
    "行政區":"新店區"
    }
  },
  {
    "type": "Feature",
    "geometry": {
       "type": "Point",
       "coordinates":  [ 121.4936559,24.9927442 ]
    },
    "properties": {
    "機構名稱":"衛生福利部雙和醫院附設護理之家(委託臺北醫學大學興建經營)",
    "地址":"新北市中和區力行里中正路291號13~15樓",
    "行政區":"中和區"
    }
  },
  {
    "type": "Feature",
    "geometry": {
       "type": "Point",
       "coordinates":  [ 121.514563,24.9747849 ]
    },
    "properties": {
    "機構名稱":"康園護理之家",
    "地址":"新北市新店區安興路91巷31號1至5樓",
    "行政區":"新店區"
    }
  },
  {
    "type": "Feature",
    "geometry": {
       "type": "Point",
       "coordinates":  [ 121.456001,25.0065308 ]
    },
    "properties": {
    "機構名稱":"百禾長照社團法人附設新北市私立百禾住宿長照機構",
    "地址":"新北市板橋區新興里南雅南路一段8號2樓",
    "行政區":"板橋區"
    }
  },
  {
    "type": "Feature",
    "geometry": {
       "type": "Point",
       "coordinates":  [ 121.549135,24.9742089 ]
    },
    "properties": {
    "機構名稱":"寶興護理之家",
    "地址":"新北市新店區寶興路39號1樓、2至4樓、41號2至5樓",
    "行政區":"新店區"
    }
  },
  {
    "type": "Feature",
    "geometry": {
       "type": "Point",
       "coordinates":  [ 121.4830081,25.005198 ]
    },
    "properties": {
    "機構名稱":"新北市私立皇佳老人長期照顧中心(養護型)",
    "地址":"新北市中和區中原里中山路二段562號10樓",
    "行政區":"中和區"
    }
  },
  {
    "type": "Feature",
    "geometry": {
       "type": "Point",
       "coordinates":  [ 121.4832049,25.005241 ]
    },
    "properties": {
    "機構名稱":"新北市私立中原老人長期照顧中心(養護型)",
    "地址":"新北市中和區中原里中山路二段560號6樓、6樓之1",
    "行政區":"中和區"
    }
  },
  {
    "type": "Feature",
    "geometry": {
       "type": "Point",
       "coordinates":  [ 121.4832049,25.005241 ]
    },
    "properties": {
    "機構名稱":"皇家護理之家",
    "地址":"新北市中和區中原里中山路二段560號5樓、562號5樓、7樓、7樓之1、8樓",
    "行政區":"中和區"
    }
  },
  {
    "type": "Feature",
    "geometry": {
       "type": "Point",
       "coordinates":  [ 121.4574246,25.0232911 ]
    },
    "properties": {
    "機構名稱":"新北市立聯合醫院附設護理之家",
    "地址":"新北市板橋區德翠里英士路198號5樓",
    "行政區":"板橋區"
    }
  },
  {
    "type": "Feature",
    "geometry": {
       "type": "Point",
       "coordinates":  [ 121.4633375,25.0457692 ]
    },
    "properties": {
    "機構名稱":"新北市私立景馨護理之家",
    "地址":"新北市新莊區化成路63巷41號1~2樓",
    "行政區":"新莊區"
    }
  },
  {
    "type": "Feature",
    "geometry": {
       "type": "Point",
       "coordinates":  [ 121.6025792,25.1121078 ]
    },
    "properties": {
    "機構名稱":"財團法人中華文化社會福利事業基金會附設新北市私立翠柏新村老人安養中心",
    "地址":"新北市汐止區長青里永春一路5號",
    "行政區":"汐止區"
    }
  },
  {
    "type": "Feature",
    "geometry": {
       "type": "Point",
       "coordinates":  [ 121.4590917,25.0071776 ]
    },
    "properties": {
    "機構名稱":"新北市私立迦順老人長期照顧中心(養護型)",
    "地址":"新北市板橋區鄉雲里館前西路6號8樓",
    "行政區":"板橋區"
    }
  },
  {
    "type": "Feature",
    "geometry": {
       "type": "Point",
       "coordinates":  [ 121.4997383,24.9555591 ]
    },
    "properties": {
    "機構名稱":"新北仁康醫院附設護理之家",
    "地址":"新北市新店區安康路二段323~325號3樓",
    "行政區":"新店區"
    }
  },
  {
    "type": "Feature",
    "geometry": {
       "type": "Point",
       "coordinates":  [ 121.4671124,25.0436269 ]
    },
    "properties": {
    "機構名稱":"新北市私立沐心老人長期照顧中心(養護型)",
    "地址":"新北市三重區中興里重新路五段635之2號1~3樓",
    "行政區":"三重區"
    }
  },
  {
    "type": "Feature",
    "geometry": {
       "type": "Point",
       "coordinates":  [ 121.384584,25.0763199 ]
    },
    "properties": {
    "機構名稱":"太陽長照社團法人附設新北市私立林口住宿長照機構",
    "地址":"新北市林口區西林里吉林街30號",
    "行政區":"林口區"
    }
  },
  {
    "type": "Feature",
    "geometry": {
       "type": "Point",
       "coordinates":  [ 121.6775006,25.0715683 ]
    },
    "properties": {
    "機構名稱":"財團法人恆安社會福利慈善事業基金會附設新北市私立大同老人長期照顧中心(養護型)",
    "地址":"新北市汐止區保安里大同路三段425號3、4樓",
    "行政區":"汐止區"
    }
  },
  {
    "type": "Feature",
    "geometry": {
       "type": "Point",
       "coordinates":  [ 121.549202,24.9742779 ]
    },
    "properties": {
    "機構名稱":"匯安護理之家",
    "地址":"新北市新店區寶興路37號3樓",
    "行政區":"新店區"
    }
  },
  {
    "type": "Feature",
    "geometry": {
       "type": "Point",
       "coordinates":  [ 121.534313,24.976912 ]
    },
    "properties": {
    "機構名稱":"新北市私立匯安老人長期照顧中心(養護型)",
    "地址":"新北市新店區中正路399巷7號",
    "行政區":"新店區"
    }
  },
  {
    "type": "Feature",
    "geometry": {
       "type": "Point",
       "coordinates":  [ 121.554551,24.950404 ]
    },
    "properties": {
    "機構名稱":"新北市私立匯福老人長期照顧中心(養護型)",
    "地址":"新北市新店區竹林路99號",
    "行政區":"新店區"
    }
  },
  {
    "type": "Feature",
    "geometry": {
       "type": "Point",
       "coordinates":  [ 121.5352778,24.9825 ]
    },
    "properties": {
    "機構名稱":"遠東護理之家",
    "地址":"新北市新店區民權路129號2樓",
    "行政區":"新店區"
    }
  },
  {
    "type": "Feature",
    "geometry": {
       "type": "Point",
       "coordinates":  [ 121.5386752,24.9830825 ]
    },
    "properties": {
    "機構名稱":"新北市私立皇冠老人養護中心",
    "地址":"新北市新店區民權路60號4樓",
    "行政區":"新店區"
    }
  },
  {
    "type": "Feature",
    "geometry": {
       "type": "Point",
       "coordinates":  [ 121.538668,24.9830853 ]
    },
    "properties": {
    "機構名稱":"新北市私立大坪林老人長期照顧中心(養護型)",
    "地址":"新北市新店區民權路58號、60號5樓",
    "行政區":"新店區"
    }
  },
  {
    "type": "Feature",
    "geometry": {
       "type": "Point",
       "coordinates":  [ 121.4713435,24.990293 ]
    },
    "properties": {
    "機構名稱":"新北市私立迦勒老人長期照顧中心(養護型)",
    "地址":"新北市土城區延壽路9號",
    "行政區":"土城區"
    }
  },
  {
    "type": "Feature",
    "geometry": {
       "type": "Point",
       "coordinates":  [ 121.4605988,24.9911191 ]
    },
    "properties": {
    "機構名稱":"新北市私立迦蜜老人長期照顧中心(養護型)",
    "地址":"新北市板橋區廣福里廣權路10號2~3樓",
    "行政區":"板橋區"
    }
  },
  {
    "type": "Feature",
    "geometry": {
       "type": "Point",
       "coordinates":  [ 121.4603656,24.9909406 ]
    },
    "properties": {
    "機構名稱":"新北市私立廣權老人長期照顧中心(養護型)",
    "地址":"新北市板橋區廣福里廣權路2號5樓",
    "行政區":"板橋區"
    }
  },
  {
    "type": "Feature",
    "geometry": {
       "type": "Point",
       "coordinates":  [ 121.4609055,24.9910578 ]
    },
    "properties": {
    "機構名稱":"廣權護理之家",
    "地址":"新北市板橋區廣福里廣權路6號2、5樓",
    "行政區":"板橋區"
    }
  },
  {
    "type": "Feature",
    "geometry": {
       "type": "Point",
       "coordinates":  [ 121.4603656,24.9909406 ]
    },
    "properties": {
    "機構名稱":"新北市私立廣福老人長期照顧中心(養護型)",
    "地址":"新北市板橋區廣福里廣權路2號4樓",
    "行政區":"板橋區"
    }
  },
  {
    "type": "Feature",
    "geometry": {
       "type": "Point",
       "coordinates":  [ 121.3721439,24.9360815 ]
    },
    "properties": {
    "機構名稱":"新北市私立衡安護理之家",
    "地址":"新北市三峽區文化路59號5樓之1、6樓之1.2、7樓之1",
    "行政區":"三峽區"
    }
  },
  {
    "type": "Feature",
    "geometry": {
       "type": "Point",
       "coordinates":  [ 121.7458785,25.1288093 ]
    },
    "properties": {
    "機構名稱":"基隆市私立聯安護理之家",
    "地址":"基隆市仁愛區愛五路34號3樓、6樓",
    "行政區":"仁愛區"
    }
  },
  {
    "type": "Feature",
    "geometry": {
       "type": "Point",
       "coordinates":  [ 121.7458785,25.1288093 ]
    },
    "properties": {
    "機構名稱":"基隆市私立聯安老人長期照顧中心(養護型)",
    "地址":"基隆市仁愛區愛五路34號7樓",
    "行政區":"仁愛區"
    }
  },
  {
    "type": "Feature",
    "geometry": {
       "type": "Point",
       "coordinates":  [ 121.421354,25.1621657 ]
    },
    "properties": {
    "機構名稱":"八里佳醫護理之家",
    "地址":"新北市八里區大崁里觀海大道185號",
    "行政區":"八里區"
    }
  },
  {
    "type": "Feature",
    "geometry": {
       "type": "Point",
       "coordinates":  [ 121.483523,25.006402 ]
    },
    "properties": {
    "機構名稱":"新北市私立双慈老人長期照顧中心(養護型)",
    "地址":"新北市中和區中原里中正路909號5樓",
    "行政區":"中和區"
    }
  },
  {
    "type": "Feature",
    "geometry": {
       "type": "Point",
       "coordinates":  [ 121.483523,25.006402 ]
    },
    "properties": {
    "機構名稱":"双慈護理之家",
    "地址":"新北市中和區中原里中正路909號8、9樓",
    "行政區":"中和區"
    }
  },
  {
    "type": "Feature",
    "geometry": {
       "type": "Point",
       "coordinates":  [ 121.4854204,24.9999442 ]
    },
    "properties": {
    "機構名稱":"新北市私立怡和老人長期照顧中心(養護型)",
    "地址":"新北市中和區平河里中正路772號5樓",
    "行政區":"中和區"
    }
  },
  {
    "type": "Feature",
    "geometry": {
       "type": "Point",
       "coordinates":  [ 121.619147,24.985848 ]
    },
    "properties": {
    "機構名稱":"財團法人台灣省私立健順養護中心",
    "地址":"新北市深坑區昇高里王軍寮9號",
    "行政區":"深坑區"
    }
  },
  {
    "type": "Feature",
    "geometry": {
       "type": "Point",
       "coordinates":  [ 121.489967,25.26107 ]
    },
    "properties": {
    "機構名稱":"仁禾護理之家",
    "地址":"新北市三芝區古庄里四棧橋53之3號1~3樓",
    "行政區":"三芝區"
    }
  },
  {
    "type": "Feature",
    "geometry": {
       "type": "Point",
       "coordinates":  [ 121.478052,25.083403 ]
    },
    "properties": {
    "機構名稱":"私立三民護理之家",
    "地址":"新北市蘆洲區三民路26巷51號1-2樓",
    "行政區":"蘆洲區"
    }
  },
  {
    "type": "Feature",
    "geometry": {
       "type": "Point",
       "coordinates":  [ 121.478052,25.083403 ]
    },
    "properties": {
    "機構名稱":"新北市私立恩祥老人長期照顧中心(養護型)",
    "地址":"新北市蘆洲區三民路26巷51號3樓",
    "行政區":"蘆洲區"
    }
  },
  {
    "type": "Feature",
    "geometry": {
       "type": "Point",
       "coordinates":  [ 121.4882231,25.0761896 ]
    },
    "properties": {
    "機構名稱":"新北市私立祐安老人長期照顧中心(養護型)",
    "地址":"新北市三重區福隆里自強路四段6、8號3樓",
    "行政區":"三重區"
    }
  },
  {
    "type": "Feature",
    "geometry": {
       "type": "Point",
       "coordinates":  [ 121.3530677,24.9539662 ]
    },
    "properties": {
    "機構名稱":"康禾護理之家",
    "地址":"新北市鶯歌區中鶯里建國路85號8樓",
    "行政區":"鶯歌區"
    }
  },
  {
    "type": "Feature",
    "geometry": {
       "type": "Point",
       "coordinates":  [ 121.3586736,25.0498186 ]
    },
    "properties": {
    "機構名稱":"永康護理之家",
    "地址":"桃園市龜山區忠義路二段421號",
    "行政區":"龜山區"
    }
  },
  {
    "type": "Feature",
    "geometry": {
       "type": "Point",
       "coordinates":  [ 121.5283359,25.1277887 ]
    },
    "properties": {
    "機構名稱":"臺北市私立全泰老人長期照顧中心(養護型)",
    "地址":"台北市北投區行義路105號1~2樓",
    "行政區":"北投區"
    }
  },
  {
    "type": "Feature",
    "geometry": {
       "type": "Point",
       "coordinates":  [ 121.5288569,25.1266799 ]
    },
    "properties": {
    "機構名稱":"臺北市私立全家老人長期照顧中心(養護型)",
    "地址":"台北市北投區行義路96巷1號1~2樓",
    "行政區":"北投區"
    }
  },
  {
    "type": "Feature",
    "geometry": {
       "type": "Point",
       "coordinates":  [ 121.522099,25.1227893 ]
    },
    "properties": {
    "機構名稱":"臺北市私立全寶老人長期照顧中心(養護型)",
    "地址":"台北市北投區石牌路二段315巷16弄2、2-1號1樓",
    "行政區":"北投區"
    }
  },
  {
    "type": "Feature",
    "geometry": {
       "type": "Point",
       "coordinates":  [ 121.5248901,25.1236183 ]
    },
    "properties": {
    "機構名稱":"臺北市私立義行老人長期照顧中心(養護型)",
    "地址":"台北市北投區石牌路二段357巷1號4-6樓",
    "行政區":"北投區"
    }
  },
  {
    "type": "Feature",
    "geometry": {
       "type": "Point",
       "coordinates":  [ 121.5248901,25.1236183 ]
    },
    "properties": {
    "機構名稱":"臺北市私立行義老人長期照顧中心(養護型)",
    "地址":"台北市北投區石牌路二段357巷1號1-3樓",
    "行政區":"北投區"
    }
  },
  {
    "type": "Feature",
    "geometry": {
       "type": "Point",
       "coordinates":  [ 121.4696644,25.0464905 ]
    },
    "properties": {
    "機構名稱":"三重中興醫院附設護理之家",
    "地址":"新北市三重區中興里中興北街21號4樓",
    "行政區":"三重區"
    }
  },
  {
    "type": "Feature",
    "geometry": {
       "type": "Point",
       "coordinates":  [ 121.5339813,24.9819003 ]
    },
    "properties": {
    "機構名稱":"福德護理之家",
    "地址":"新北市新店區中正路500號2、3、5樓；502號3、4、5樓",
    "行政區":"新店區"
    }
  },
  {
    "type": "Feature",
    "geometry": {
       "type": "Point",
       "coordinates":  [ 121.5334943,24.9852504 ]
    },
    "properties": {
    "機構名稱":"新北市私立莊敬老人長期照顧中心(養護型)",
    "地址":"新北市新店區中正路521巷1、3號3樓",
    "行政區":"新店區"
    }
  },
  {
    "type": "Feature",
    "geometry": {
       "type": "Point",
       "coordinates":  [ 121.4916089,25.0760583 ]
    },
    "properties": {
    "機構名稱":"和安長照社團法人附設新北市私立和安住宿長照機構",
    "地址":"新北市三重區溪美里溪尾街35號1~4樓",
    "行政區":"三重區"
    }
  },
  {
    "type": "Feature",
    "geometry": {
       "type": "Point",
       "coordinates":  [ 121.5381654,24.9840244 ]
    },
    "properties": {
    "機構名稱":"新北市私立亞恩老人長期照顧中心(養護型)",
    "地址":"新北市新店區民權路42巷59弄2號5樓",
    "行政區":"新店區"
    }
  },
  {
    "type": "Feature",
    "geometry": {
       "type": "Point",
       "coordinates":  [ 121.3655989,25.0199092 ]
    },
    "properties": {
    "機構名稱":"大慶護理之家",
    "地址":"桃園市龜山區文化路182巷9號",
    "行政區":"龜山區"
    }
  },
  {
    "type": "Feature",
    "geometry": {
       "type": "Point",
       "coordinates":  [ 121.4060743,25.1568168 ]
    },
    "properties": {
    "機構名稱":"佳醫長照社團法人附設新北市私立觀海住宿長照機構",
    "地址":"新北市八里區頂罟里博物館路183號1至4樓",
    "行政區":"八里區"
    }
  },
  {
    "type": "Feature",
    "geometry": {
       "type": "Point",
       "coordinates":  [ 121.4933445,25.0017042 ]
    },
    "properties": {
    "機構名稱":"新北市私立闔樂老人長期照顧中心(養護型)",
    "地址":"新北市中和區連和里中山路二段327巷1號2樓",
    "行政區":"中和區"
    }
  },
  {
    "type": "Feature",
    "geometry": {
       "type": "Point",
       "coordinates":  [ 121.4932235,25.0000842 ]
    },
    "properties": {
    "機構名稱":"新北市私立合樂老人長期照顧中心(養護型)",
    "地址":"新北市中和區連和里中山路二段327巷11弄17號3樓",
    "行政區":"中和區"
    }
  },
  {
    "type": "Feature",
    "geometry": {
       "type": "Point",
       "coordinates":  [ 121.4932235,25.0000842 ]
    },
    "properties": {
    "機構名稱":"新北市私立和樂老人長期照顧中心(養護型)",
    "地址":"新北市中和區連和里中山路二段327巷11弄17號5樓",
    "行政區":"中和區"
    }
  },
  {
    "type": "Feature",
    "geometry": {
       "type": "Point",
       "coordinates":  [ 121.442668,24.987537 ]
    },
    "properties": {
    "機構名稱":"新北市私立銀享家園老人長期照顧中心(養護型)",
    "地址":"新北市土城區日新街33巷8號1、2樓",
    "行政區":"土城區"
    }
  },
  {
    "type": "Feature",
    "geometry": {
       "type": "Point",
       "coordinates":  [ 121.442668,24.987537 ]
    },
    "properties": {
    "機構名稱":"新北市私立銀享樂園老人長期照顧中心(養護型)",
    "地址":"新北市土城區日新街33巷8號3、4樓",
    "行政區":"土城區"
    }
  },
  {
    "type": "Feature",
    "geometry": {
       "type": "Point",
       "coordinates":  [ 121.5346349,25.0507392 ]
    },
    "properties": {
    "機構名稱":"劉秀娥長照社團法人附設臺北市私立宜恩住宿長照機構",
    "地址":"台北市中山區伊通街28號1-7樓",
    "行政區":"中山區"
    }
  },
  {
    "type": "Feature",
    "geometry": {
       "type": "Point",
       "coordinates":  [ 121.3530677,24.9539662 ]
    },
    "properties": {
    "機構名稱":"新北市私立溫馨園老人長期照顧中心(養護型)",
    "地址":"新北市鶯歌區中鶯里建國路85號4樓",
    "行政區":"鶯歌區"
    }
  },
  {
    "type": "Feature",
    "geometry": {
       "type": "Point",
       "coordinates":  [ 121.489967,25.26107 ]
    },
    "properties": {
    "機構名稱":"新北市私立仁惠老人長期照顧中心(養護型)",
    "地址":"新北市三芝區古庄里四棧橋53之11號",
    "行政區":"三芝區"
    }
  },
  {
    "type": "Feature",
    "geometry": {
       "type": "Point",
       "coordinates":  [ 121.4853725,24.9998351 ]
    },
    "properties": {
    "機構名稱":"新北市私立怡安老人長期照顧中心(養護型)",
    "地址":"新北市中和區平河里中正路770號5樓",
    "行政區":"中和區"
    }
  },
  {
    "type": "Feature",
    "geometry": {
       "type": "Point",
       "coordinates":  [ 121.483523,25.006402 ]
    },
    "properties": {
    "機構名稱":"新北市私立慈和老人長期照顧中心(養護型)",
    "地址":"新北市中和區中原里中正路909號2樓",
    "行政區":"中和區"
    }
  },
  {
    "type": "Feature",
    "geometry": {
       "type": "Point",
       "coordinates":  [ 121.483523,25.006402 ]
    },
    "properties": {
    "機構名稱":"新北市私立慈安老人長期照顧中心(養護型)",
    "地址":"新北市中和區中原里中正路909號3樓",
    "行政區":"中和區"
    }
  },
  {
    "type": "Feature",
    "geometry": {
       "type": "Point",
       "coordinates":  [ 121.483523,25.006402 ]
    },
    "properties": {
    "機構名稱":"新北市私立慈鴻老人長期照顧中心(養護型)",
    "地址":"新北市中和區中原里中正路909號4樓",
    "行政區":"中和區"
    }
  },
  {
    "type": "Feature",
    "geometry": {
       "type": "Point",
       "coordinates":  [ 121.289092,24.8822978 ]
    },
    "properties": {
    "機構名稱":"桃園市私立大溪老人長期照顧中心(養護型)",
    "地址":"桃園市大溪區慈湖路85號4樓",
    "行政區":"大溪區"
    }
  },
  {
    "type": "Feature",
    "geometry": {
       "type": "Point",
       "coordinates":  [ 121.4550473,25.1609319 ]
    },
    "properties": {
    "機構名稱":"詠林長照社團法人附設新北市私立詠林綜合長照機構",
    "地址":"新北市淡水區中正東路一段111巷20號",
    "行政區":"淡水區"
    }
  }
]
}