{
   "type": "FeatureCollection",
   "features": [
  {
    "type": "Feature",
    "geometry": {
       "type": "Point",
       "coordinates":  [ 121.6375691,25.2192271 ]
    },
    "properties": {
    "序號":1,
    "機構名稱":"惠恩居家職能治療所",
    "地址":"新北市金山區仁愛路19號1樓",
    "行政區":"金山區"
    }
  },
  {
    "type": "Feature",
    "geometry": {
       "type": "Point",
       "coordinates":  [ 121.462314,25.0157944 ]
    },
    "properties": {
    "序號":2,
    "機構名稱":"星嶼職能治療所",
    "地址":"新北市板橋區文化路一段145號6樓之5",
    "行政區":"板橋區"
    }
  },
  {
    "type": "Feature",
    "geometry": {
       "type": "Point",
       "coordinates":  [ 121.4566233,25.0247069 ]
    },
    "properties": {
    "序號":3,
    "機構名稱":"友方職能治療所",
    "地址":"新北市板橋區龍泉街108巷26號1樓",
    "行政區":"板橋區"
    }
  },
  {
    "type": "Feature",
    "geometry": {
       "type": "Point",
       "coordinates":  [ 121.4507305,24.9936976 ]
    },
    "properties": {
    "序號":4,
    "機構名稱":"亮點職能治療所",
    "地址":"新北市板橋區四川路二段241號1樓",
    "行政區":"板橋區"
    }
  },
  {
    "type": "Feature",
    "geometry": {
       "type": "Point",
       "coordinates":  [ 121.4616289,25.0168061 ]
    },
    "properties": {
    "序號":5,
    "機構名稱":"好蒔光職能治療所",
    "地址":"新北市板橋區光正街45巷18號1樓",
    "行政區":"板橋區"
    }
  },
  {
    "type": "Feature",
    "geometry": {
       "type": "Point",
       "coordinates":  [ 121.8542328,25.1121605 ]
    },
    "properties": {
    "序號":6,
    "機構名稱":"居達居家職能治療所",
    "地址":"新北市汐止區新台五路1段159號12樓",
    "行政區":"汐止區"
    }
  },
  {
    "type": "Feature",
    "geometry": {
       "type": "Point",
       "coordinates":  [ 121.8061764,25.1096872 ]
    },
    "properties": {
    "序號":7,
    "機構名稱":"寶珠居家職能治療所",
    "地址":"新北市瑞芳區瑞芳街38號1樓",
    "行政區":"瑞芳區"
    }
  },
  {
    "type": "Feature",
    "geometry": {
       "type": "Point",
       "coordinates":  [ 121.5461063,24.9710151 ]
    },
    "properties": {
    "序號":8,
    "機構名稱":"好窩居家職能治療所",
    "地址":"新北市新店區中興路二段67巷11號(1樓)",
    "行政區":"新店區"
    }
  },
  {
    "type": "Feature",
    "geometry": {
       "type": "Point",
       "coordinates":  [ 121.5368124,24.982737 ]
    },
    "properties": {
    "序號":9,
    "機構名稱":"煦煦職能治療所",
    "地址":"新北市新店區民權路105號2樓",
    "行政區":"新店區"
    }
  },
  {
    "type": "Feature",
    "geometry": {
       "type": "Point",
       "coordinates":  [ 121.5096598,24.9609826 ]
    },
    "properties": {
    "序號":10,
    "機構名稱":"新印象居家職能治療所",
    "地址":"新北市新店區安德街85號2樓",
    "行政區":"新店區"
    }
  },
  {
    "type": "Feature",
    "geometry": {
       "type": "Point",
       "coordinates":  [ 121.5089855,25.0131531 ]
    },
    "properties": {
    "序號":11,
    "機構名稱":"勇健居家職能治療所",
    "地址":"新北市永和區仁愛路202巷34號1樓",
    "行政區":"永和區"
    }
  },
  {
    "type": "Feature",
    "geometry": {
       "type": "Point",
       "coordinates":  [ 121.4441282,24.9775168 ]
    },
    "properties": {
    "序號":12,
    "機構名稱":"土城好的職能治療所",
    "地址":"新北市土城區員林街63號1樓",
    "行政區":"土城區"
    }
  },
  {
    "type": "Feature",
    "geometry": {
       "type": "Point",
       "coordinates":  [ 121.3654034,24.9358941 ]
    },
    "properties": {
    "序號":13,
    "機構名稱":"鐵牛居家職能治療所",
    "地址":"新北市三峽區中山路127號11樓之5",
    "行政區":"三峽區"
    }
  },
  {
    "type": "Feature",
    "geometry": {
       "type": "Point",
       "coordinates":  [ 121.4912485,25.0836895 ]
    },
    "properties": {
    "序號":14,
    "機構名稱":"碧華居家職能治療所",
    "地址":"新北市三重區富華街98號1樓",
    "行政區":"三重區"
    }
  },
  {
    "type": "Feature",
    "geometry": {
       "type": "Point",
       "coordinates":  [ 121.4461071,25.0397501 ]
    },
    "properties": {
    "序號":15,
    "機構名稱":"友伴瑞智居家職能治療所",
    "地址":"新北市新莊區新泰路253號2樓",
    "行政區":"新莊區"
    }
  },
  {
    "type": "Feature",
    "geometry": {
       "type": "Point",
       "coordinates":  [ 121.4582396,25.0517575 ]
    },
    "properties": {
    "序號":16,
    "機構名稱":"恩禾居家職能治療所",
    "地址":"新北市新莊區福壽街136巷11號1樓",
    "行政區":"新莊區"
    }
  },
  {
    "type": "Feature",
    "geometry": {
       "type": "Point",
       "coordinates":  [ 121.4624205,25.0527489 ]
    },
    "properties": {
    "序號":17,
    "機構名稱":"宏兒職能治療所",
    "地址":"新北市新莊區頭前路140號1樓",
    "行政區":"新莊區"
    }
  },
  {
    "type": "Feature",
    "geometry": {
       "type": "Point",
       "coordinates":  [ 121.461433,25.0549539 ]
    },
    "properties": {
    "序號":18,
    "機構名稱":"上新居家職能治療所",
    "地址":"新北市新莊區福美街62巷6號15樓",
    "行政區":"新莊區"
    }
  },
  {
    "type": "Feature",
    "geometry": {
       "type": "Point",
       "coordinates":  [ 121.378102,25.0705695 ]
    },
    "properties": {
    "序號":19,
    "機構名稱":"草本職能治療所",
    "地址":"新北市林口區麗園一街11巷7號1樓之2",
    "行政區":"林口區"
    }
  },
  {
    "type": "Feature",
    "geometry": {
       "type": "Point",
       "coordinates":  [ 121.4348181,25.1910625 ]
    },
    "properties": {
    "序號":20,
    "機構名稱":"牧光職能治療所",
    "地址":"新北市淡水區濱海路二段202巷20號1樓",
    "行政區":"淡水區"
    }
  }
]
}