{
   "type": "FeatureCollection",
   "features": [
  {
    "type": "Feature",
    "geometry": {
       "type": "Point",
       "coordinates":  [ 121.512167,25.084122 ]
    },
    "properties": {
    "機構名稱":"臺北市私立上美老人長期照顧中心(養護型)",
    "地址":"臺北市士林區重慶北路4段162號1-4樓",
    "行政區":"士林區"
    }
  },
  {
    "type": "Feature",
    "geometry": {
       "type": "Point",
       "coordinates":  [ 121.5097225,25.0799749 ]
    },
    "properties": {
    "機構名稱":"臺北市私立璞園老人長期照顧中心(養護型)",
    "地址":"臺北市士林區富光里010鄰葫蘆街33號4、5、6樓",
    "行政區":"士林區"
    }
  },
  {
    "type": "Feature",
    "geometry": {
       "type": "Point",
       "coordinates":  [ 121.5317455,25.1016991 ]
    },
    "properties": {
    "機構名稱":"臺北市私立祐心老人長期照顧中心(養護型)",
    "地址":"臺北市士林區名山里 009鄰至誠路1段305巷3弄14號1-2樓",
    "行政區":"士林區"
    }
  },
  {
    "type": "Feature",
    "geometry": {
       "type": "Point",
       "coordinates":  [ 121.5265851,25.1143092 ]
    },
    "properties": {
    "機構名稱":"臺北市私立永青老人長期照顧中心(養護型)",
    "地址":"臺北市士林區天壽里003鄰中山北路6段427巷8號1-4樓",
    "行政區":"士林區"
    }
  },
  {
    "type": "Feature",
    "geometry": {
       "type": "Point",
       "coordinates":  [ 121.5293841,25.1088765 ]
    },
    "properties": {
    "機構名稱":"臺北市私立祇福老人養護所",
    "地址":"臺北市士林區三玉里016鄰忠誠路2段10巷11、13號1-2樓",
    "行政區":"士林區"
    }
  },
  {
    "type": "Feature",
    "geometry": {
       "type": "Point",
       "coordinates":  [ 121.509688,25.0799818 ]
    },
    "properties": {
    "機構名稱":"臺北市私立荷園老人長期照顧中心(養護型)",
    "地址":"臺北市士林區富光里010鄰葫蘆街33號2-3樓",
    "行政區":"士林區"
    }
  },
  {
    "type": "Feature",
    "geometry": {
       "type": "Point",
       "coordinates":  [ 121.5274088,25.1087207 ]
    },
    "properties": {
    "機構名稱":"臺北市私立柏安老人養護所",
    "地址":"臺北市士林區蘭雅里 024鄰 中山北路6段290巷52、54號1樓",
    "行政區":"士林區"
    }
  },
  {
    "type": "Feature",
    "geometry": {
       "type": "Point",
       "coordinates":  [ 121.5268131,25.1076367 ]
    },
    "properties": {
    "機構名稱":"臺北市私立松園老人長期照顧中心(養護型)",
    "地址":"臺北市士林區蘭雅里 020鄰德行東路61巷1、2、3號1-2樓",
    "行政區":"士林區"
    }
  },
  {
    "type": "Feature",
    "geometry": {
       "type": "Point",
       "coordinates":  [ 121.530293,25.1201739 ]
    },
    "properties": {
    "機構名稱":"臺北市私立天玉老人長期照顧中心(長期照護型)",
    "地址":"臺北市士林區天玉街38巷18弄18號1-6樓",
    "行政區":"士林區"
    }
  },
  {
    "type": "Feature",
    "geometry": {
       "type": "Point",
       "coordinates":  [ 121.5151416,25.0559543 ]
    },
    "properties": {
    "機構名稱":"臺北市私立慧光老人養護所",
    "地址":"臺北市大同區星明里 014鄰寧夏路32 號5樓",
    "行政區":"大同區"
    }
  },
  {
    "type": "Feature",
    "geometry": {
       "type": "Point",
       "coordinates":  [ 121.5174742,25.0748879 ]
    },
    "properties": {
    "機構名稱":"臺北市私立敦煌老人長期照顧中心(養護型)",
    "地址":"臺北市大同區重慶里014鄰敦煌路80巷3號及3-1號1樓",
    "行政區":"大同區"
    }
  },
  {
    "type": "Feature",
    "geometry": {
       "type": "Point",
       "coordinates":  [ 121.5110596,25.063466 ]
    },
    "properties": {
    "機構名稱":"臺北市私立祥安尊榮老人長期照顧中心(養護型)",
    "地址":"臺北市大同區國順里008鄰延平北路3段4號2樓",
    "行政區":"大同區"
    }
  },
  {
    "type": "Feature",
    "geometry": {
       "type": "Point",
       "coordinates":  [ 121.5135814,25.0731305 ]
    },
    "properties": {
    "機構名稱":"臺北市私立永安老人養護所",
    "地址":"臺北市大同區老師里008鄰重慶北路3段284號2-4樓、286號1-4樓",
    "行政區":"大同區"
    }
  },
  {
    "type": "Feature",
    "geometry": {
       "type": "Point",
       "coordinates":  [ 121.5185891,25.0500791 ]
    },
    "properties": {
    "機構名稱":"臺北市私立德寶老人養護所",
    "地址":"臺北市大同區建明里002鄰長安西路78巷4弄11號1-4樓",
    "行政區":"大同區"
    }
  },
  {
    "type": "Feature",
    "geometry": {
       "type": "Point",
       "coordinates":  [ 121.5128735,25.0597434 ]
    },
    "properties": {
    "機構名稱":"臺北市私立仁家老人長期照顧中心(養護型)",
    "地址":"臺北市大同區延平里001鄰甘州街55號5-6樓",
    "行政區":"大同區"
    }
  },
  {
    "type": "Feature",
    "geometry": {
       "type": "Point",
       "coordinates":  [ 121.5128768,25.059955 ]
    },
    "properties": {
    "機構名稱":"臺北市私立建順老人長期照顧中心(養護型)",
    "地址":"臺北市大同區延平里001鄰甘州街55號3樓",
    "行政區":"大同區"
    }
  },
  {
    "type": "Feature",
    "geometry": {
       "type": "Point",
       "coordinates":  [ 121.5128735,25.0597434 ]
    },
    "properties": {
    "機構名稱":"臺北市私立建興老人長期照顧中心(養護型)",
    "地址":"臺北市大同區延平里001鄰甘州街55號2樓",
    "行政區":"大同區"
    }
  },
  {
    "type": "Feature",
    "geometry": {
       "type": "Point",
       "coordinates":  [ 121.514,25.0690389 ]
    },
    "properties": {
    "機構名稱":"臺北市私立晉安老人長期照顧中心(養護型)",
    "地址":"臺北市大同區至聖里032鄰重慶北路3段175、177號1-4樓",
    "行政區":"大同區"
    }
  },
  {
    "type": "Feature",
    "geometry": {
       "type": "Point",
       "coordinates":  [ 121.5160523,25.0520956 ]
    },
    "properties": {
    "機構名稱":"臺北市私立祥寶尊榮老人長期照顧中心(養護型)",
    "地址":"臺北市大同區建泰里019鄰太原路97巷4、6號",
    "行政區":"大同區"
    }
  },
  {
    "type": "Feature",
    "geometry": {
       "type": "Point",
       "coordinates":  [ 121.5339113,25.0210974 ]
    },
    "properties": {
    "機構名稱":"臺北市私立天恩老人長期照顧中心(養護型)",
    "地址":"臺北市大安區龍門里008鄰新生南路3段7-4號、9-4號、9-5號",
    "行政區":"大安區"
    }
  },
  {
    "type": "Feature",
    "geometry": {
       "type": "Point",
       "coordinates":  [ 121.5535438,25.0206255 ]
    },
    "properties": {
    "機構名稱":"臺北市私立新常安老人長期照顧中心(養護型)",
    "地址":"臺北市大安區黎孝里006鄰安居街46巷14號1-3樓及芳和里013鄰和平東路3段228巷39號2樓",
    "行政區":"大安區"
    }
  },
  {
    "type": "Feature",
    "geometry": {
       "type": "Point",
       "coordinates":  [ 121.5261222,25.028732 ]
    },
    "properties": {
    "機構名稱":"臺北市私立健全老人長期照顧中心(養護型)",
    "地址":"臺北市大安區錦華里001鄰金山南路2段152號2、3、5、6樓",
    "行政區":"大安區"
    }
  },
  {
    "type": "Feature",
    "geometry": {
       "type": "Point",
       "coordinates":  [ 121.5546213,25.0205936 ]
    },
    "properties": {
    "機構名稱":"臺北市私立嘉恩老人長期照顧中心(養護型)",
    "地址":"臺北市大安區黎孝里008鄰安居街27號4、6樓及29號4、5樓",
    "行政區":"大安區"
    }
  },
  {
    "type": "Feature",
    "geometry": {
       "type": "Point",
       "coordinates":  [ 121.5544388,25.036636 ]
    },
    "properties": {
    "機構名稱":"臺北市私立康寧老人長期照顧中心(養護型)",
    "地址":"臺北市大安區光信里020鄰仁愛路4段300巷20弄15號2樓、17號2樓",
    "行政區":"大安區"
    }
  },
  {
    "type": "Feature",
    "geometry": {
       "type": "Point",
       "coordinates":  [ 121.5433687,25.0367328 ]
    },
    "properties": {
    "機構名稱":"臺北市私立上上老人養護所",
    "地址":"臺北市大安區仁慈里009鄰復興南路1段279巷14、16號1樓",
    "行政區":"大安區"
    }
  },
  {
    "type": "Feature",
    "geometry": {
       "type": "Point",
       "coordinates":  [ 121.5219731,25.0599038 ]
    },
    "properties": {
    "機構名稱":"臺北市私立晨欣老人長期照顧中心(養護型)",
    "地址":"臺北市中山區集英里006鄰中山北路2段96巷19號3樓",
    "行政區":"中山區"
    }
  },
  {
    "type": "Feature",
    "geometry": {
       "type": "Point",
       "coordinates":  [ 121.5235476,25.0599663 ]
    },
    "properties": {
    "機構名稱":"臺北市私立松湛園老人養護所",
    "地址":"臺北市中山區聚盛里003鄰錦州街4巷1號2樓、2樓之1",
    "行政區":"中山區"
    }
  },
  {
    "type": "Feature",
    "geometry": {
       "type": "Point",
       "coordinates":  [ 121.5217812,25.0576456 ]
    },
    "properties": {
    "機構名稱":"臺北市私立松青園老人養護所",
    "地址":"臺北市中山區民安里021鄰民生西路30號2樓、2樓之1-4",
    "行政區":"中山區"
    }
  },
  {
    "type": "Feature",
    "geometry": {
       "type": "Point",
       "coordinates":  [ 121.5413036,25.0470198 ]
    },
    "properties": {
    "機構名稱":"臺北市私立法泉老人長期照顧中心(養護型)",
    "地址":"臺北市中山區朱崙里012鄰八德路2段251號2樓",
    "行政區":"中山區"
    }
  },
  {
    "type": "Feature",
    "geometry": {
       "type": "Point",
       "coordinates":  [ 121.5284439,25.0480783 ]
    },
    "properties": {
    "機構名稱":"臺北市私立龍江老人長期照顧中心(養護型)",
    "地址":"臺北市中山區力行里007鄰長安東路1段63號4樓",
    "行政區":"中山區"
    }
  },
  {
    "type": "Feature",
    "geometry": {
       "type": "Point",
       "coordinates":  [ 121.5418607,25.0673684 ]
    },
    "properties": {
    "機構名稱":"臺北市私立仁群老人長期照顧中心(養護型)",
    "地址":"臺北市中山區下埤里019鄰民族東路512巷14號1-2樓、16號2樓",
    "行政區":"中山區"
    }
  },
  {
    "type": "Feature",
    "geometry": {
       "type": "Point",
       "coordinates":  [ 121.541763,25.0673799 ]
    },
    "properties": {
    "機構名稱":"臺北市私立群仁老人長期照顧中心(養護型)",
    "地址":"臺北市中山區下埤里019鄰民族東路512巷14號3-5樓",
    "行政區":"中山區"
    }
  },
  {
    "type": "Feature",
    "geometry": {
       "type": "Point",
       "coordinates":  [ 121.5328467,25.0631395 ]
    },
    "properties": {
    "機構名稱":"臺北市私立福成老人長期照顧中心(養護型)",
    "地址":"臺北市中山區新福里004鄰松江路374、380、382號4樓",
    "行政區":"中山區"
    }
  },
  {
    "type": "Feature",
    "geometry": {
       "type": "Point",
       "coordinates":  [ 121.5328467,25.0631395 ]
    },
    "properties": {
    "機構名稱":"臺北市私立福喜老人長期照顧中心(養護型)",
    "地址":"臺北市中山區松江路374、380、382號7樓",
    "行政區":"中山區"
    }
  },
  {
    "type": "Feature",
    "geometry": {
       "type": "Point",
       "coordinates":  [ 121.5323168,25.0376327 ]
    },
    "properties": {
    "機構名稱":"臺北市私立仁泰老人長期照顧中心(養護型)",
    "地址":"臺北市中正區三愛里001鄰連雲街3號1、3樓、3之4號及三愛里001鄰新生南路1段124之3號5樓",
    "行政區":"中正區"
    }
  },
  {
    "type": "Feature",
    "geometry": {
       "type": "Point",
       "coordinates":  [ 121.530931,25.015778 ]
    },
    "properties": {
    "機構名稱":"臺北市私立博愛老人長期照顧中心(養護型)",
    "地址":"臺北市中正區富水里001鄰汀州路3段56號2樓",
    "行政區":"中正區"
    }
  },
  {
    "type": "Feature",
    "geometry": {
       "type": "Point",
       "coordinates":  [ 121.5092344,25.0263067 ]
    },
    "properties": {
    "機構名稱":"臺北市私立明德老人長期照顧中心(養護型)",
    "地址":"臺北市中正區永昌里014鄰詔安街220巷2、4號1樓",
    "行政區":"中正區"
    }
  },
  {
    "type": "Feature",
    "geometry": {
       "type": "Point",
       "coordinates":  [ 121.5325131,25.0375474 ]
    },
    "properties": {
    "機構名稱":"臺北市私立大園老人長期照顧中心(養護型)",
    "地址":"臺北市中正區三愛里001鄰新生南路1段124之3號1-4樓",
    "行政區":"中正區"
    }
  },
  {
    "type": "Feature",
    "geometry": {
       "type": "Point",
       "coordinates":  [ 121.589608,25.073282 ]
    },
    "properties": {
    "機構名稱":"臺北市私立銀髮族老人養護所",
    "地址":"臺北市內湖區成功路2段488號2-5樓、490號2樓、4樓",
    "行政區":"內湖區"
    }
  },
  {
    "type": "Feature",
    "geometry": {
       "type": "Point",
       "coordinates":  [ 121.60607,25.07122 ]
    },
    "properties": {
    "機構名稱":"臺北市私立童音老人長期照顧中心(養護型)",
    "地址":"臺北市內湖區葫洲里004鄰民權東路6段280巷19弄1、3、5、7號1樓",
    "行政區":"內湖區"
    }
  },
  {
    "type": "Feature",
    "geometry": {
       "type": "Point",
       "coordinates":  [ 121.5867951,25.0829394 ]
    },
    "properties": {
    "機構名稱":"臺北市私立湖濱老人長期照顧中心(養護型)",
    "地址":"臺北市內湖區湖濱里010鄰內湖路2段179巷58、60號1樓",
    "行政區":"內湖區"
    }
  },
  {
    "type": "Feature",
    "geometry": {
       "type": "Point",
       "coordinates":  [ 121.5893509,25.0786963 ]
    },
    "properties": {
    "機構名稱":"臺北市私立瑞安老人長期照顧中(養護型)",
    "地址":"臺北市內湖區紫陽里002鄰成功路3段88、90、92號2樓、76巷9號2樓",
    "行政區":"內湖區"
    }
  },
  {
    "type": "Feature",
    "geometry": {
       "type": "Point",
       "coordinates":  [ 121.5897913,25.0823214 ]
    },
    "properties": {
    "機構名稱":"臺北市私立祥家老人養護所",
    "地址":"臺北市內湖區湖濱里026鄰內湖路2段253巷1弄1、3號1-2樓",
    "行政區":"內湖區"
    }
  },
  {
    "type": "Feature",
    "geometry": {
       "type": "Point",
       "coordinates":  [ 121.5862251,25.0764092 ]
    },
    "properties": {
    "機構名稱":"臺北市私立文德老人長期照顧中心(養護型)",
    "地址":"臺北市內湖區紫陽里011鄰陽光街70-2、70-3、72、72-1號1樓",
    "行政區":"內湖區"
    }
  },
  {
    "type": "Feature",
    "geometry": {
       "type": "Point",
       "coordinates":  [ 121.539867,24.994049 ]
    },
    "properties": {
    "機構名稱":"臺北市私立景安老人長期照顧中心(養護型)",
    "地址":"臺北市文山區景慶里001鄰溪口街1巷5號1-2樓",
    "行政區":"文山區"
    }
  },
  {
    "type": "Feature",
    "geometry": {
       "type": "Point",
       "coordinates":  [ 121.5521388,24.997484 ]
    },
    "properties": {
    "機構名稱":"臺北市私立心慈老人養護所",
    "地址":"臺北市文山區興業里022鄰辛亥路5段120-1號1-4樓",
    "行政區":"文山區"
    }
  },
  {
    "type": "Feature",
    "geometry": {
       "type": "Point",
       "coordinates":  [ 121.5085626,24.9869095 ]
    },
    "properties": {
    "機構名稱":"臺北市私立慧誠老人長期照顧中心(養護型)",
    "地址":"臺北市文山區木柵里025鄰木柵路2段163、165號1-5樓",
    "行政區":"文山區"
    }
  },
  {
    "type": "Feature",
    "geometry": {
       "type": "Point",
       "coordinates":  [ 121.5672934,25.0019013 ]
    },
    "properties": {
    "機構名稱":"臺北市私立蓮馨老人長期照顧中心(養護型)",
    "地址":"臺北市文山區萬和街6號8樓",
    "行政區":"文山區"
    }
  },
  {
    "type": "Feature",
    "geometry": {
       "type": "Point",
       "coordinates":  [ 121.5453128,24.999017 ]
    },
    "properties": {
    "機構名稱":"臺北市私立慈安老人長期照顧中心(養護型)",
    "地址":"臺北市文山區萬有里001鄰興隆路1段2、4號1~4樓",
    "行政區":"文山區"
    }
  },
  {
    "type": "Feature",
    "geometry": {
       "type": "Point",
       "coordinates":  [ 121.539867,24.994049 ]
    },
    "properties": {
    "機構名稱":"臺北市私立美安老人長期照顧中心(養護型)",
    "地址":"臺北市文山區景慶里001鄰溪口街1巷5號3-4樓",
    "行政區":"文山區"
    }
  },
  {
    "type": "Feature",
    "geometry": {
       "type": "Point",
       "coordinates":  [ 121.5434021,24.9911581 ]
    },
    "properties": {
    "機構名稱":"臺北市私立景興老人長期照顧中心(養護型)",
    "地址":"臺北市文山區景行里021鄰景興路222號3樓",
    "行政區":"文山區"
    }
  },
  {
    "type": "Feature",
    "geometry": {
       "type": "Point",
       "coordinates":  [ 121.5409352,24.9915088 ]
    },
    "properties": {
    "機構名稱":"臺北市私立三園老人長期照顧中心(養護型)",
    "地址":"臺北市文山區景行里002鄰車前路12號3-4樓",
    "行政區":"文山區"
    }
  },
  {
    "type": "Feature",
    "geometry": {
       "type": "Point",
       "coordinates":  [ 121.5673234,24.9892605 ]
    },
    "properties": {
    "機構名稱":"臺北市私立吉祥老人長期照顧中心(養護型)",
    "地址":"臺北市文山區木柵里004鄰木柵路3段85巷8弄4-1、4-2號1樓及2、2-1、2-2、4、4-1、4-2號2樓",
    "行政區":"文山區"
    }
  },
  {
    "type": "Feature",
    "geometry": {
       "type": "Point",
       "coordinates":  [ 121.5518259,25.0009608 ]
    },
    "properties": {
    "機構名稱":"臺北市私立慧華老人長期照顧中心(養護型)",
    "地址":"臺北市文山區興隆路2段154巷11號1樓",
    "行政區":"文山區"
    }
  },
  {
    "type": "Feature",
    "geometry": {
       "type": "Point",
       "coordinates":  [ 121.5675869,25.0019967 ]
    },
    "properties": {
    "機構名稱":"臺北市私立萬芳老人長期照顧中心(養護型)",
    "地址":"臺北市文山區萬和街8號3樓",
    "行政區":"文山區"
    }
  },
  {
    "type": "Feature",
    "geometry": {
       "type": "Point",
       "coordinates":  [ 121.5236857,25.1228663 ]
    },
    "properties": {
    "機構名稱":"臺北市私立尊暉老人長期照顧中心(養護型)",
    "地址":"臺北市北投區石牌路2段343巷17號1-2樓",
    "行政區":"北投區"
    }
  },
  {
    "type": "Feature",
    "geometry": {
       "type": "Point",
       "coordinates":  [ 121.5220989,25.1238098 ]
    },
    "properties": {
    "機構名稱":"臺北市私立賢暉老人長期照顧中心(養護型)",
    "地址":"臺北市北投區石牌路2段315巷34弄14、16號1樓",
    "行政區":"北投區"
    }
  },
  {
    "type": "Feature",
    "geometry": {
       "type": "Point",
       "coordinates":  [ 121.503002,25.128669 ]
    },
    "properties": {
    "機構名稱":"臺北市私立高德老人長期照顧中心(養護型)",
    "地址":"臺北市北投區磺港路156號1-3樓",
    "行政區":"北投區"
    }
  },
  {
    "type": "Feature",
    "geometry": {
       "type": "Point",
       "coordinates":  [ 121.5475908,25.1506603 ]
    },
    "properties": {
    "機構名稱":"臺北市私立陽明山老人長期照顧中心(養護型)",
    "地址":"臺北市北投區湖山里006鄰紗帽路116號",
    "行政區":"北投區"
    }
  },
  {
    "type": "Feature",
    "geometry": {
       "type": "Point",
       "coordinates":  [ 121.5288569,25.1266799 ]
    },
    "properties": {
    "機構名稱":"臺北市私立全家老人長期照顧中心(養護型)",
    "地址":"臺北市北投區永和里007鄰行義路96巷1號1-2樓",
    "行政區":"北投區"
    }
  },
  {
    "type": "Feature",
    "geometry": {
       "type": "Point",
       "coordinates":  [ 121.5152091,25.117779 ]
    },
    "properties": {
    "機構名稱":"臺北市私立倚青園老人長期照顧中心(養護型)",
    "地址":"臺北市北投區永明里008鄰義理街63巷4弄7、11之1-3號1樓",
    "行政區":"北投區"
    }
  },
  {
    "type": "Feature",
    "geometry": {
       "type": "Point",
       "coordinates":  [ 121.5177343,25.106498 ]
    },
    "properties": {
    "機構名稱":"臺北市私立榮健老人長期照顧中心(養護型)",
    "地址":"臺北市北投區建民里016鄰文林北路94巷5弄13號1-2樓、15號2樓",
    "行政區":"北投區"
    }
  },
  {
    "type": "Feature",
    "geometry": {
       "type": "Point",
       "coordinates":  [ 121.522099,25.1227893 ]
    },
    "properties": {
    "機構名稱":"臺北市私立全寶老人長期照顧中心(養護型)",
    "地址":"臺北市北投區永欣里014鄰石牌路2段315巷16弄2、2-1號1樓",
    "行政區":"北投區"
    }
  },
  {
    "type": "Feature",
    "geometry": {
       "type": "Point",
       "coordinates":  [ 121.5248901,25.1236183 ]
    },
    "properties": {
    "機構名稱":"臺北市私立義行老人長期照顧中心(養護型)",
    "地址":"臺北市北投區永和里001鄰石牌路2段357巷1號4-6樓",
    "行政區":"北投區"
    }
  },
  {
    "type": "Feature",
    "geometry": {
       "type": "Point",
       "coordinates":  [ 121.5162152,25.1074742 ]
    },
    "properties": {
    "機構名稱":"臺北市私立建民老人長期照顧中心(養護型)",
    "地址":"臺北市北投區文林里019鄰建民路22、24、26、26之1號1樓",
    "行政區":"北投區"
    }
  },
  {
    "type": "Feature",
    "geometry": {
       "type": "Point",
       "coordinates":  [ 121.5162582,25.1071757 ]
    },
    "properties": {
    "機構名稱":"臺北市私立榮祥老人長期照顧中心(養護型)",
    "地址":"臺北市北投區文林里019鄰文林北路166巷5弄2號1-2樓、4號1樓",
    "行政區":"北投區"
    }
  },
  {
    "type": "Feature",
    "geometry": {
       "type": "Point",
       "coordinates":  [ 121.5092239,25.1266829 ]
    },
    "properties": {
    "機構名稱":"臺北市私立北投老人長期照顧中心(養護型)",
    "地址":"臺北市北投區公館路231巷20號1樓",
    "行政區":"北投區"
    }
  },
  {
    "type": "Feature",
    "geometry": {
       "type": "Point",
       "coordinates":  [ 121.5283359,25.1277887 ]
    },
    "properties": {
    "機構名稱":"臺北市私立全泰老人長期照顧中心(養護型)",
    "地址":"臺北市北投區永和里006鄰行義路105號1-2樓",
    "行政區":"北投區"
    }
  },
  {
    "type": "Feature",
    "geometry": {
       "type": "Point",
       "coordinates":  [ 121.4674476,25.1180343 ]
    },
    "properties": {
    "機構名稱":"臺北市私立崇順老人養護所",
    "地址":"臺北市北投區關渡里013鄰知行路52巷1號、54號1-2樓",
    "行政區":"北投區"
    }
  },
  {
    "type": "Feature",
    "geometry": {
       "type": "Point",
       "coordinates":  [ 121.4865609,25.1428162 ]
    },
    "properties": {
    "機構名稱":"臺北市私立聖心老人養護所",
    "地址":"臺北市北投區稻香路321號1樓",
    "行政區":"北投區"
    }
  },
  {
    "type": "Feature",
    "geometry": {
       "type": "Point",
       "coordinates":  [ 121.468793,25.11952 ]
    },
    "properties": {
    "機構名稱":"臺北市私立天下知老人長期照顧中心(養護型)",
    "地址":"臺北市北投區關渡里003鄰關渡路60、62之1號1樓",
    "行政區":"北投區"
    }
  },
  {
    "type": "Feature",
    "geometry": {
       "type": "Point",
       "coordinates":  [ 121.5129663,25.1166426 ]
    },
    "properties": {
    "機構名稱":"臺北市私立怡靜老人長期照顧中心(養護型)",
    "地址":"臺北市北投區吉利里002鄰致遠二路96巷3弄1、3號1樓",
    "行政區":"北投區"
    }
  },
  {
    "type": "Feature",
    "geometry": {
       "type": "Point",
       "coordinates":  [ 121.49686,25.13143 ]
    },
    "properties": {
    "機構名稱":"臺北市私立貴族老人長期照顧中心(養護型)",
    "地址":"臺北市北投區大同里013鄰大業路452巷2號2-5樓",
    "行政區":"北投區"
    }
  },
  {
    "type": "Feature",
    "geometry": {
       "type": "Point",
       "coordinates":  [ 121.5248901,25.1236183 ]
    },
    "properties": {
    "機構名稱":"臺北市私立行義老人長期照顧中心(養護型)",
    "地址":"臺北市北投區永和里001鄰石牌路2段357巷1號1-3樓",
    "行政區":"北投區"
    }
  },
  {
    "type": "Feature",
    "geometry": {
       "type": "Point",
       "coordinates":  [ 121.49686,25.13143 ]
    },
    "properties": {
    "機構名稱":"臺北市私立豪門老人長期照顧中心(養護型)",
    "地址":"臺北市北投區大同里013鄰大業路452巷2號6-9樓",
    "行政區":"北投區"
    }
  },
  {
    "type": "Feature",
    "geometry": {
       "type": "Point",
       "coordinates":  [ 121.508298,25.1201375 ]
    },
    "properties": {
    "機構名稱":"臺北市私立奇里岸老人長期照顧中心(養護型)",
    "地址":"臺北市北投區立農里013鄰西安街2段245號1-2樓",
    "行政區":"北投區"
    }
  },
  {
    "type": "Feature",
    "geometry": {
       "type": "Point",
       "coordinates":  [ 121.5010579,25.1473586 ]
    },
    "properties": {
    "機構名稱":"財團法人台灣基督教道生院附設臺北市私立道生院老人長期照顧中心(養護型)",
    "地址":"臺北市北投區秀山里002鄰中和街錫安巷112號1-2樓及地下1樓",
    "行政區":"北投區"
    }
  },
  {
    "type": "Feature",
    "geometry": {
       "type": "Point",
       "coordinates":  [ 121.5223028,25.1152358 ]
    },
    "properties": {
    "機構名稱":"臺北市私立同德老人長期照顧中心(養護型)",
    "地址":"臺北市北投區榮華里004鄰明德路306號1-7樓",
    "行政區":"北投區"
    }
  },
  {
    "type": "Feature",
    "geometry": {
       "type": "Point",
       "coordinates":  [ 121.5493011,25.0469247 ]
    },
    "properties": {
    "機構名稱":"臺北市私立群英老人長期照顧中心(養護型)",
    "地址":"臺北市松山區仁愛里013鄰敦化南路1段7號4樓",
    "行政區":"松山區"
    }
  },
  {
    "type": "Feature",
    "geometry": {
       "type": "Point",
       "coordinates":  [ 121.5485,25.0425267 ]
    },
    "properties": {
    "機構名稱":"臺北市私立台大老人長期照顧中心(養護型)",
    "地址":"臺北市松山區仁愛里013鄰敦化南路1段7號4樓之1",
    "行政區":"松山區"
    }
  },
  {
    "type": "Feature",
    "geometry": {
       "type": "Point",
       "coordinates":  [ 121.5696021,25.0515465 ]
    },
    "properties": {
    "機構名稱":"臺北市私立仁仁老人長期照顧中心(養護型)",
    "地址":"臺北市松山區新聚里003鄰南京東路5段356號2樓",
    "行政區":"松山區"
    }
  },
  {
    "type": "Feature",
    "geometry": {
       "type": "Point",
       "coordinates":  [ 121.5637852,25.0489188 ]
    },
    "properties": {
    "機構名稱":"臺北市私立康壯老人長期照顧中心(養護型)",
    "地址":"臺北市松山區吉祥里001鄰八德路4段203、205號1、2樓",
    "行政區":"松山區"
    }
  },
  {
    "type": "Feature",
    "geometry": {
       "type": "Point",
       "coordinates":  [ 121.580846,25.0449049 ]
    },
    "properties": {
    "機構名稱":"臺北市私立倚青苑老人養護所",
    "地址":"臺北市信義區永春里002鄰中坡北路21號1-2樓、23號2樓",
    "行政區":"信義區"
    }
  },
  {
    "type": "Feature",
    "geometry": {
       "type": "Point",
       "coordinates":  [ 121.5752989,25.0352633 ]
    },
    "properties": {
    "機構名稱":"臺北市私立康庭老人養護所",
    "地址":"臺北市信義區安康里017鄰信義路6段15巷16號1樓",
    "行政區":"信義區"
    }
  },
  {
    "type": "Feature",
    "geometry": {
       "type": "Point",
       "coordinates":  [ 121.5827634,25.0440469 ]
    },
    "properties": {
    "機構名稱":"臺北市私立福安老人長期照顧中心(養護型)",
    "地址":"臺北市南港區萬福里007鄰玉成街140巷21、23號2樓",
    "行政區":"南港區"
    }
  },
  {
    "type": "Feature",
    "geometry": {
       "type": "Point",
       "coordinates":  [ 121.4921535,25.0251948 ]
    },
    "properties": {
    "機構名稱":"臺北市私立葉媽媽老人長期照顧中心(養護型)",
    "地址":"臺北市萬華區錦德里012鄰西園路2段243之13號1-4樓",
    "行政區":"萬華區"
    }
  },
  {
    "type": "Feature",
    "geometry": {
       "type": "Point",
       "coordinates":  [ 121.4969354,25.0238781 ]
    },
    "properties": {
    "機構名稱":"財團法人天主教失智老人社會福利基金會附設臺北市私立聖若瑟失智老人養護中心",
    "地址":"臺北市萬華區保德里001鄰德昌街125巷11號1-4樓、13號1樓",
    "行政區":"萬華區"
    }
  },
  {
    "type": "Feature",
    "geometry": {
       "type": "Point",
       "coordinates":  [ 121.4921535,25.0251948 ]
    },
    "properties": {
    "機構名稱":"臺北市私立葉爸爸老人長期照顧中心(養護型)",
    "地址":"臺北市萬華區錦德里012鄰西園路2段243之14號1-4樓",
    "行政區":"萬華區"
    }
  },
  {
    "type": "Feature",
    "geometry": {
       "type": "Point",
       "coordinates":  [ 121.5020605,25.0445599 ]
    },
    "properties": {
    "機構名稱":"臺北市私立中山老人長期照顧中心(養護型)",
    "地址":"臺北市萬華區菜園里001鄰峨眉街124號、124之1號1樓",
    "行政區":"萬華區"
    }
  },
  {
    "type": "Feature",
    "geometry": {
       "type": "Point",
       "coordinates":  [ 121.4954318,25.0348821 ]
    },
    "properties": {
    "機構名稱":"財團法人臺北市私立愛愛院",
    "地址":"臺北市萬華區糖廍里006鄰大理街175巷27號",
    "行政區":"萬華區"
    }
  },
  {
    "type": "Feature",
    "geometry": {
       "type": "Point",
       "coordinates":  [ 121.4913712,25.03533 ]
    },
    "properties": {
    "機構名稱":"臺北市私立軒儀老人長期照顧中心(養護型)",
    "地址":"臺北市萬華區華江里028鄰和平西路3段384號1樓",
    "行政區":"萬華區"
    }
  }
]
}